<?xml version="1.0" encoding="UTF-8"?>
<gpx creator="StravaGPX" version="1.1" xmlns="http://www.topografix.com/GPX/1/1" xmlns:xsi="http://www.w3.org/2001/XMLSchema-instance" xsi:schemaLocation="http://www.topografix.com/GPX/1/1 http://www.topografix.com/GPX/1/1/gpx.xsd">
 <metadata>
  <name>Duo Étoilé 2026</name>
  <author>
   <name>Magali Chevalier</name>
   <link href="https://www.strava.com/athletes/34563915"/>
  </author>
  <copyright author="OpenStreetMap contributors">
   <year>2020</year>
   <license>https://www.openstreetmap.org/copyright</license>
  </copyright>
  <link href="https://www.strava.com/routes/3411664332079138948"/>
 </metadata>
 <trk>
  <name>Duo Étoilé 2026</name>
  <link href="https://www.strava.com/routes/3411664332079138948"/>
  <type>running</type>
  <trkseg>
   <trkpt lat="45.923570000000005" lon="6.8692">
    <ele>1040.93</ele>
   </trkpt>
   <trkpt lat="45.92344000000001" lon="6.869650000000001">
    <ele>1040.07</ele>
   </trkpt>
   <trkpt lat="45.923280000000005" lon="6.86971">
    <ele>1039.68</ele>
   </trkpt>
   <trkpt lat="45.9232" lon="6.869680000000001">
    <ele>1039.68</ele>
   </trkpt>
   <trkpt lat="45.922990000000006" lon="6.87014">
    <ele>1038.78</ele>
   </trkpt>
   <trkpt lat="45.923" lon="6.870590000000001">
    <ele>1038.7</ele>
   </trkpt>
   <trkpt lat="45.92296" lon="6.87075">
    <ele>1038.3</ele>
   </trkpt>
   <trkpt lat="45.92295000000001" lon="6.871020000000001">
    <ele>1038.47</ele>
   </trkpt>
   <trkpt lat="45.922990000000006" lon="6.871160000000001">
    <ele>1038.52</ele>
   </trkpt>
   <trkpt lat="45.923120000000004" lon="6.871320000000001">
    <ele>1038.47</ele>
   </trkpt>
   <trkpt lat="45.923590000000004" lon="6.871790000000001">
    <ele>1036.47</ele>
   </trkpt>
   <trkpt lat="45.923590000000004" lon="6.8718">
    <ele>1038.3500000000001</ele>
   </trkpt>
   <trkpt lat="45.9239" lon="6.872140000000001">
    <ele>1038.3500000000001</ele>
   </trkpt>
   <trkpt lat="45.9241" lon="6.87234">
    <ele>1038.47</ele>
   </trkpt>
   <trkpt lat="45.9245" lon="6.87255">
    <ele>1039.38</ele>
   </trkpt>
   <trkpt lat="45.92459" lon="6.87265">
    <ele>1039.38</ele>
   </trkpt>
   <trkpt lat="45.92457" lon="6.872730000000001">
    <ele>1039.38</ele>
   </trkpt>
   <trkpt lat="45.92459" lon="6.87281">
    <ele>1039.25</ele>
   </trkpt>
   <trkpt lat="45.924440000000004" lon="6.872940000000001">
    <ele>1039.18</ele>
   </trkpt>
   <trkpt lat="45.924330000000005" lon="6.873100000000001">
    <ele>1039.26</ele>
   </trkpt>
   <trkpt lat="45.924260000000004" lon="6.8733">
    <ele>1040.1</ele>
   </trkpt>
   <trkpt lat="45.92421" lon="6.8735100000000005">
    <ele>1040.78</ele>
   </trkpt>
   <trkpt lat="45.92419" lon="6.87394">
    <ele>1040.78</ele>
   </trkpt>
   <trkpt lat="45.92419" lon="6.87445">
    <ele>1044.6200000000001</ele>
   </trkpt>
   <trkpt lat="45.924170000000004" lon="6.8746100000000006">
    <ele>1044.74</ele>
   </trkpt>
   <trkpt lat="45.9241" lon="6.874960000000001">
    <ele>1045.39</ele>
   </trkpt>
   <trkpt lat="45.923970000000004" lon="6.8753400000000005">
    <ele>1045.45</ele>
   </trkpt>
   <trkpt lat="45.923790000000004" lon="6.87563">
    <ele>1045.13</ele>
   </trkpt>
   <trkpt lat="45.92371000000001" lon="6.87574">
    <ele>1044.93</ele>
   </trkpt>
   <trkpt lat="45.923300000000005" lon="6.876130000000001">
    <ele>1045.18</ele>
   </trkpt>
   <trkpt lat="45.92316" lon="6.876250000000001">
    <ele>1045.45</ele>
   </trkpt>
   <trkpt lat="45.92296" lon="6.876340000000001">
    <ele>1045.95</ele>
   </trkpt>
   <trkpt lat="45.92307" lon="6.8763000000000005">
    <ele>1045.66</ele>
   </trkpt>
   <trkpt lat="45.92296" lon="6.876340000000001">
    <ele>1045.95</ele>
   </trkpt>
   <trkpt lat="45.922990000000006" lon="6.87645">
    <ele>1046.1100000000001</ele>
   </trkpt>
   <trkpt lat="45.923300000000005" lon="6.87692">
    <ele>1046.9</ele>
   </trkpt>
   <trkpt lat="45.92380000000001" lon="6.87774">
    <ele>1049.8500000000001</ele>
   </trkpt>
   <trkpt lat="45.92411500163539" lon="6.878354996480537">
    <ele>1053.5</ele>
   </trkpt>
   <trkpt lat="45.92443" lon="6.878970000000001">
    <ele>1058.8600000000001</ele>
   </trkpt>
   <trkpt lat="45.92443" lon="6.87896">
    <ele>1058.8000000000002</ele>
   </trkpt>
   <trkpt lat="45.924580000000006" lon="6.87924">
    <ele>1061.3100000000002</ele>
   </trkpt>
   <trkpt lat="45.92461" lon="6.8793500000000005">
    <ele>1061.72</ele>
   </trkpt>
   <trkpt lat="45.92459" lon="6.879370000000001">
    <ele>1061.94</ele>
   </trkpt>
   <trkpt lat="45.92459" lon="6.87973">
    <ele>1064.5600000000002</ele>
   </trkpt>
   <trkpt lat="45.924600000000005" lon="6.879810000000001">
    <ele>1064.89</ele>
   </trkpt>
   <trkpt lat="45.92466" lon="6.879930000000001">
    <ele>1065.8400000000001</ele>
   </trkpt>
   <trkpt lat="45.924780000000005" lon="6.88004">
    <ele>1066.4900000000002</ele>
   </trkpt>
   <trkpt lat="45.924800000000005" lon="6.880400000000001">
    <ele>1068.53</ele>
   </trkpt>
   <trkpt lat="45.92486" lon="6.88051">
    <ele>1070.84</ele>
   </trkpt>
   <trkpt lat="45.92481" lon="6.8806400000000005">
    <ele>1071.47</ele>
   </trkpt>
   <trkpt lat="45.92484" lon="6.880920000000001">
    <ele>1075.15</ele>
   </trkpt>
   <trkpt lat="45.92492000000001" lon="6.881150000000001">
    <ele>1078.6200000000001</ele>
   </trkpt>
   <trkpt lat="45.92492000000001" lon="6.88114">
    <ele>1078.42</ele>
   </trkpt>
   <trkpt lat="45.92512000000001" lon="6.88163">
    <ele>1086.93</ele>
   </trkpt>
   <trkpt lat="45.92519" lon="6.881880000000001">
    <ele>1091.05</ele>
   </trkpt>
   <trkpt lat="45.92521000000001" lon="6.88203">
    <ele>1095.76</ele>
   </trkpt>
   <trkpt lat="45.92519" lon="6.88245">
    <ele>1102.14</ele>
   </trkpt>
   <trkpt lat="45.92535" lon="6.88302">
    <ele>1112.89</ele>
   </trkpt>
   <trkpt lat="45.92550000000001" lon="6.883360000000001">
    <ele>1119.43</ele>
   </trkpt>
   <trkpt lat="45.92550000000001" lon="6.883350000000001">
    <ele>1119.16</ele>
   </trkpt>
   <trkpt lat="45.92568000000001" lon="6.8836900000000005">
    <ele>1127.8300000000002</ele>
   </trkpt>
   <trkpt lat="45.925790000000006" lon="6.884030000000001">
    <ele>1134.09</ele>
   </trkpt>
   <trkpt lat="45.92582" lon="6.88407">
    <ele>1135.1100000000001</ele>
   </trkpt>
   <trkpt lat="45.92588000000001" lon="6.884110000000001">
    <ele>1135.98</ele>
   </trkpt>
   <trkpt lat="45.92615000000001" lon="6.884220000000001">
    <ele>1139.71</ele>
   </trkpt>
   <trkpt lat="45.92624000000001" lon="6.88431">
    <ele>1140.7800000000002</ele>
   </trkpt>
   <trkpt lat="45.926280000000006" lon="6.88433">
    <ele>1141.42</ele>
   </trkpt>
   <trkpt lat="45.92645" lon="6.88435">
    <ele>1142.9900000000002</ele>
   </trkpt>
   <trkpt lat="45.92654" lon="6.88438">
    <ele>1146.7</ele>
   </trkpt>
   <trkpt lat="45.926730000000006" lon="6.884600000000001">
    <ele>1149.65</ele>
   </trkpt>
   <trkpt lat="45.926730000000006" lon="6.88459">
    <ele>1149.44</ele>
   </trkpt>
   <trkpt lat="45.926840000000006" lon="6.884740000000001">
    <ele>1151.58</ele>
   </trkpt>
   <trkpt lat="45.927420000000005" lon="6.885330000000001">
    <ele>1159.5300000000002</ele>
   </trkpt>
   <trkpt lat="45.92756000000001" lon="6.885560000000001">
    <ele>1162.39</ele>
   </trkpt>
   <trkpt lat="45.928230000000006" lon="6.8863900000000005">
    <ele>1173.0500000000002</ele>
   </trkpt>
   <trkpt lat="45.928230000000006" lon="6.886380000000001">
    <ele>1173.01</ele>
   </trkpt>
   <trkpt lat="45.92868000000001" lon="6.88717">
    <ele>1177.3500000000001</ele>
   </trkpt>
   <trkpt lat="45.92882" lon="6.8879">
    <ele>1184.3400000000001</ele>
   </trkpt>
   <trkpt lat="45.9288" lon="6.88808">
    <ele>1185.6</ele>
   </trkpt>
   <trkpt lat="45.928830000000005" lon="6.888260000000001">
    <ele>1187.69</ele>
   </trkpt>
   <trkpt lat="45.928940000000004" lon="6.88855">
    <ele>1190.8899999999999</ele>
   </trkpt>
   <trkpt lat="45.929390000000005" lon="6.8893">
    <ele>1194.6499999999999</ele>
   </trkpt>
   <trkpt lat="45.93001" lon="6.890040000000001">
    <ele>1197.8300000000002</ele>
   </trkpt>
   <trkpt lat="45.930080000000004" lon="6.890180000000001">
    <ele>1198.0700000000002</ele>
   </trkpt>
   <trkpt lat="45.93025" lon="6.890610000000001">
    <ele>1203.27</ele>
   </trkpt>
   <trkpt lat="45.93038000000001" lon="6.890820000000001">
    <ele>1207.1900000000003</ele>
   </trkpt>
   <trkpt lat="45.93038000000001" lon="6.890810000000001">
    <ele>1207.0500000000002</ele>
   </trkpt>
   <trkpt lat="45.9305" lon="6.89104">
    <ele>1211.44</ele>
   </trkpt>
   <trkpt lat="45.930530000000005" lon="6.8912">
    <ele>1213.42</ele>
   </trkpt>
   <trkpt lat="45.93052" lon="6.89132">
    <ele>1216.6200000000001</ele>
   </trkpt>
   <trkpt lat="45.93032" lon="6.89146">
    <ele>1219.53</ele>
   </trkpt>
   <trkpt lat="45.930130000000005" lon="6.89156">
    <ele>1225.14</ele>
   </trkpt>
   <trkpt lat="45.930150000000005" lon="6.891710000000001">
    <ele>1226.25</ele>
   </trkpt>
   <trkpt lat="45.93043" lon="6.89186">
    <ele>1235.29</ele>
   </trkpt>
   <trkpt lat="45.93047000000001" lon="6.891920000000001">
    <ele>1235.29</ele>
   </trkpt>
   <trkpt lat="45.93045" lon="6.891990000000001">
    <ele>1237.19</ele>
   </trkpt>
   <trkpt lat="45.93038000000001" lon="6.8920200000000005">
    <ele>1237.19</ele>
   </trkpt>
   <trkpt lat="45.930310000000006" lon="6.891970000000001">
    <ele>1239.2500000000002</ele>
   </trkpt>
   <trkpt lat="45.93027000000001" lon="6.891990000000001">
    <ele>1241.41</ele>
   </trkpt>
   <trkpt lat="45.930260000000004" lon="6.892030000000001">
    <ele>1241.41</ele>
   </trkpt>
   <trkpt lat="45.93028" lon="6.89207">
    <ele>1241.41</ele>
   </trkpt>
   <trkpt lat="45.930640000000004" lon="6.892360000000001">
    <ele>1251.3</ele>
   </trkpt>
   <trkpt lat="45.930800000000005" lon="6.892550000000001">
    <ele>1256.28</ele>
   </trkpt>
   <trkpt lat="45.93088" lon="6.89273">
    <ele>1257.7800000000002</ele>
   </trkpt>
   <trkpt lat="45.93097" lon="6.893040000000001">
    <ele>1260.8600000000001</ele>
   </trkpt>
   <trkpt lat="45.93104" lon="6.8931700000000005">
    <ele>1263.05</ele>
   </trkpt>
   <trkpt lat="45.931470000000004" lon="6.8935900000000006">
    <ele>1268.92</ele>
   </trkpt>
   <trkpt lat="45.93189" lon="6.894400000000001">
    <ele>1275.92</ele>
   </trkpt>
   <trkpt lat="45.93207" lon="6.89456">
    <ele>1281.2100000000003</ele>
   </trkpt>
   <trkpt lat="45.93206000000001" lon="6.89463">
    <ele>1281.2100000000003</ele>
   </trkpt>
   <trkpt lat="45.931940000000004" lon="6.89461">
    <ele>1283.5800000000002</ele>
   </trkpt>
   <trkpt lat="45.93173" lon="6.894480000000001">
    <ele>1287.15</ele>
   </trkpt>
   <trkpt lat="45.931050000000006" lon="6.89395">
    <ele>1295.94</ele>
   </trkpt>
   <trkpt lat="45.93094000000001" lon="6.893910000000001">
    <ele>1297.3700000000001</ele>
   </trkpt>
   <trkpt lat="45.9309" lon="6.893940000000001">
    <ele>1297.3700000000001</ele>
   </trkpt>
   <trkpt lat="45.930890000000005" lon="6.893980000000001">
    <ele>1298.9</ele>
   </trkpt>
   <trkpt lat="45.93092" lon="6.8940600000000005">
    <ele>1299.6100000000001</ele>
   </trkpt>
   <trkpt lat="45.93127000101509" lon="6.894534997044752">
    <ele>1303.62</ele>
   </trkpt>
   <trkpt lat="45.93162" lon="6.895010000000001">
    <ele>1309.3100000000002</ele>
   </trkpt>
   <trkpt lat="45.931720000000006" lon="6.895110000000001">
    <ele>1311.29</ele>
   </trkpt>
   <trkpt lat="45.931740000000005" lon="6.895200000000001">
    <ele>1312.28</ele>
   </trkpt>
   <trkpt lat="45.931720000000006" lon="6.895300000000001">
    <ele>1312.28</ele>
   </trkpt>
   <trkpt lat="45.93162" lon="6.895560000000001">
    <ele>1314.5800000000002</ele>
   </trkpt>
   <trkpt lat="45.931520000000006" lon="6.89594">
    <ele>1318.5200000000002</ele>
   </trkpt>
   <trkpt lat="45.93153" lon="6.8961500000000004">
    <ele>1319.56</ele>
   </trkpt>
   <trkpt lat="45.931560000000005" lon="6.89632">
    <ele>1320.72</ele>
   </trkpt>
   <trkpt lat="45.931760000000004" lon="6.896660000000001">
    <ele>1325.71</ele>
   </trkpt>
   <trkpt lat="45.93187" lon="6.89674">
    <ele>1327.2</ele>
   </trkpt>
   <trkpt lat="45.93202" lon="6.896770000000001">
    <ele>1328.3</ele>
   </trkpt>
   <trkpt lat="45.93226000000001" lon="6.89672">
    <ele>1330.15</ele>
   </trkpt>
   <trkpt lat="45.93233" lon="6.896730000000001">
    <ele>1330.63</ele>
   </trkpt>
   <trkpt lat="45.932790000000004" lon="6.896910000000001">
    <ele>1337.2700000000002</ele>
   </trkpt>
   <trkpt lat="45.93292" lon="6.8969000000000005">
    <ele>1341.2400000000002</ele>
   </trkpt>
   <trkpt lat="45.93298" lon="6.89693">
    <ele>1342.14</ele>
   </trkpt>
   <trkpt lat="45.932990000000004" lon="6.896990000000001">
    <ele>1342.14</ele>
   </trkpt>
   <trkpt lat="45.93296" lon="6.89705">
    <ele>1345.08</ele>
   </trkpt>
   <trkpt lat="45.932770000000005" lon="6.89705">
    <ele>1347.6000000000001</ele>
   </trkpt>
   <trkpt lat="45.93258" lon="6.8971100000000005">
    <ele>1350.48</ele>
   </trkpt>
   <trkpt lat="45.93247" lon="6.897100000000001">
    <ele>1351.8400000000001</ele>
   </trkpt>
   <trkpt lat="45.93245" lon="6.8971100000000005">
    <ele>1352.67</ele>
   </trkpt>
   <trkpt lat="45.93244000000001" lon="6.89716">
    <ele>1352.67</ele>
   </trkpt>
   <trkpt lat="45.932460000000006" lon="6.89721">
    <ele>1354.45</ele>
   </trkpt>
   <trkpt lat="45.93249" lon="6.897220000000001">
    <ele>1354.45</ele>
   </trkpt>
   <trkpt lat="45.93276" lon="6.897220000000001">
    <ele>1358.96</ele>
   </trkpt>
   <trkpt lat="45.932860000000005" lon="6.897290000000001">
    <ele>1358.96</ele>
   </trkpt>
   <trkpt lat="45.932950000000005" lon="6.897460000000001">
    <ele>1361.82</ele>
   </trkpt>
   <trkpt lat="45.932990000000004" lon="6.89763">
    <ele>1362.9</ele>
   </trkpt>
   <trkpt lat="45.933130000000006" lon="6.897740000000001">
    <ele>1364.8300000000002</ele>
   </trkpt>
   <trkpt lat="45.93339" lon="6.89791">
    <ele>1368.74</ele>
   </trkpt>
   <trkpt lat="45.933580000000006" lon="6.89829">
    <ele>1376.33</ele>
   </trkpt>
   <trkpt lat="45.93359" lon="6.898350000000001">
    <ele>1377.91</ele>
   </trkpt>
   <trkpt lat="45.93357" lon="6.89838">
    <ele>1377.91</ele>
   </trkpt>
   <trkpt lat="45.933510000000005" lon="6.89838">
    <ele>1378.6200000000001</ele>
   </trkpt>
   <trkpt lat="45.93336" lon="6.8982600000000005">
    <ele>1381.5000000000002</ele>
   </trkpt>
   <trkpt lat="45.933240000000005" lon="6.898210000000001">
    <ele>1382.74</ele>
   </trkpt>
   <trkpt lat="45.93320000000001" lon="6.898250000000001">
    <ele>1383.46</ele>
   </trkpt>
   <trkpt lat="45.93321" lon="6.89829">
    <ele>1383.46</ele>
   </trkpt>
   <trkpt lat="45.933260000000004" lon="6.89834">
    <ele>1385.0600000000002</ele>
   </trkpt>
   <trkpt lat="45.93329000000001" lon="6.898350000000001">
    <ele>1385.0600000000002</ele>
   </trkpt>
   <trkpt lat="45.93352" lon="6.898610000000001">
    <ele>1389.3700000000001</ele>
   </trkpt>
   <trkpt lat="45.933550000000004" lon="6.898650000000001">
    <ele>1390.18</ele>
   </trkpt>
   <trkpt lat="45.93356000000001" lon="6.898720000000001">
    <ele>1390.18</ele>
   </trkpt>
   <trkpt lat="45.933510000000005" lon="6.898740000000001">
    <ele>1393.65</ele>
   </trkpt>
   <trkpt lat="45.933310000000006" lon="6.898600000000001">
    <ele>1395.3200000000002</ele>
   </trkpt>
   <trkpt lat="45.93325" lon="6.89859">
    <ele>1397.75</ele>
   </trkpt>
   <trkpt lat="45.93321" lon="6.898630000000001">
    <ele>1398.5200000000002</ele>
   </trkpt>
   <trkpt lat="45.933220000000006" lon="6.898700000000001">
    <ele>1399.24</ele>
   </trkpt>
   <trkpt lat="45.933400000000006" lon="6.89883">
    <ele>1400.5200000000002</ele>
   </trkpt>
   <trkpt lat="45.93368" lon="6.8990800000000005">
    <ele>1405.73</ele>
   </trkpt>
   <trkpt lat="45.933840000000004" lon="6.899310000000001">
    <ele>1409.13</ele>
   </trkpt>
   <trkpt lat="45.93385000000001" lon="6.899350000000001">
    <ele>1409.13</ele>
   </trkpt>
   <trkpt lat="45.933840000000004" lon="6.8994100000000005">
    <ele>1411.49</ele>
   </trkpt>
   <trkpt lat="45.933820000000004" lon="6.899430000000001">
    <ele>1411.49</ele>
   </trkpt>
   <trkpt lat="45.93366" lon="6.899280000000001">
    <ele>1412.9</ele>
   </trkpt>
   <trkpt lat="45.93348" lon="6.89916">
    <ele>1416.8</ele>
   </trkpt>
   <trkpt lat="45.933420000000005" lon="6.899150000000001">
    <ele>1418.94</ele>
   </trkpt>
   <trkpt lat="45.933400000000006" lon="6.899170000000001">
    <ele>1418.94</ele>
   </trkpt>
   <trkpt lat="45.93339" lon="6.899260000000001">
    <ele>1419.61</ele>
   </trkpt>
   <trkpt lat="45.93356000000001" lon="6.899330000000001">
    <ele>1421.8700000000001</ele>
   </trkpt>
   <trkpt lat="45.933780000000006" lon="6.899640000000001">
    <ele>1425.2600000000002</ele>
   </trkpt>
   <trkpt lat="45.93381" lon="6.89972">
    <ele>1426.16</ele>
   </trkpt>
   <trkpt lat="45.93377" lon="6.90005">
    <ele>1428.19</ele>
   </trkpt>
   <trkpt lat="45.933780000000006" lon="6.90019">
    <ele>1428.19</ele>
   </trkpt>
   <trkpt lat="45.93386" lon="6.90033">
    <ele>1428.86</ele>
   </trkpt>
   <trkpt lat="45.93404" lon="6.900460000000001">
    <ele>1430.7</ele>
   </trkpt>
   <trkpt lat="45.93431" lon="6.90092">
    <ele>1434.47</ele>
   </trkpt>
   <trkpt lat="45.934900000000006" lon="6.901790000000001">
    <ele>1441.8500000000001</ele>
   </trkpt>
   <trkpt lat="45.935010000000005" lon="6.9021300000000005">
    <ele>1444.3600000000001</ele>
   </trkpt>
   <trkpt lat="45.935120000000005" lon="6.90237">
    <ele>1445.78</ele>
   </trkpt>
   <trkpt lat="45.93516" lon="6.902640000000001">
    <ele>1448.08</ele>
   </trkpt>
   <trkpt lat="45.935210000000005" lon="6.90277">
    <ele>1448.08</ele>
   </trkpt>
   <trkpt lat="45.935500000000005" lon="6.90331">
    <ele>1452.15</ele>
   </trkpt>
   <trkpt lat="45.93592" lon="6.904350000000001">
    <ele>1457.7900000000002</ele>
   </trkpt>
   <trkpt lat="45.936130000000006" lon="6.90495">
    <ele>1459.8500000000001</ele>
   </trkpt>
   <trkpt lat="45.936245002298755" lon="6.9056699987448456">
    <ele>1461.13</ele>
   </trkpt>
   <trkpt lat="45.93636" lon="6.906390000000001">
    <ele>1464.32</ele>
   </trkpt>
   <trkpt lat="45.93645" lon="6.90657">
    <ele>1465.3700000000001</ele>
   </trkpt>
   <trkpt lat="45.9365" lon="6.906630000000001">
    <ele>1465.3700000000001</ele>
   </trkpt>
   <trkpt lat="45.936580000000006" lon="6.90669">
    <ele>1465.3700000000001</ele>
   </trkpt>
   <trkpt lat="45.93668" lon="6.906820000000001">
    <ele>1466.53</ele>
   </trkpt>
   <trkpt lat="45.936840000000004" lon="6.907190000000001">
    <ele>1468.08</ele>
   </trkpt>
   <trkpt lat="45.936580000000006" lon="6.906910000000001">
    <ele>1472.39</ele>
   </trkpt>
   <trkpt lat="45.936440000000005" lon="6.906810000000001">
    <ele>1479.93</ele>
   </trkpt>
   <trkpt lat="45.936280000000004" lon="6.906750000000001">
    <ele>1482.6100000000001</ele>
   </trkpt>
   <trkpt lat="45.93616" lon="6.90641">
    <ele>1487.47</ele>
   </trkpt>
   <trkpt lat="45.93578" lon="6.905900000000001">
    <ele>1495.02</ele>
   </trkpt>
   <trkpt lat="45.935610000000004" lon="6.90563">
    <ele>1499.97</ele>
   </trkpt>
   <trkpt lat="45.93524" lon="6.905220000000001">
    <ele>1511.0</ele>
   </trkpt>
   <trkpt lat="45.935230000000004" lon="6.905220000000001">
    <ele>1511.02</ele>
   </trkpt>
   <trkpt lat="45.935050000000004" lon="6.904980000000001">
    <ele>1515.5400000000002</ele>
   </trkpt>
   <trkpt lat="45.93497000000001" lon="6.90467">
    <ele>1520.15</ele>
   </trkpt>
   <trkpt lat="45.93491" lon="6.90453">
    <ele>1525.7800000000002</ele>
   </trkpt>
   <trkpt lat="45.93478" lon="6.904330000000001">
    <ele>1525.7800000000002</ele>
   </trkpt>
   <trkpt lat="45.93450000000001" lon="6.904090000000001">
    <ele>1535.26</ele>
   </trkpt>
   <trkpt lat="45.934360000000005" lon="6.90399">
    <ele>1540.17</ele>
   </trkpt>
   <trkpt lat="45.93423000000001" lon="6.9039600000000005">
    <ele>1540.17</ele>
   </trkpt>
   <trkpt lat="45.93401" lon="6.903860000000001">
    <ele>1547.56</ele>
   </trkpt>
   <trkpt lat="45.933800000000005" lon="6.903630000000001">
    <ele>1551.42</ele>
   </trkpt>
   <trkpt lat="45.933620000000005" lon="6.903370000000001">
    <ele>1555.6000000000001</ele>
   </trkpt>
   <trkpt lat="45.933240000000005" lon="6.90305">
    <ele>1563.44</ele>
   </trkpt>
   <trkpt lat="45.933060000000005" lon="6.90298">
    <ele>1568.63</ele>
   </trkpt>
   <trkpt lat="45.93282000000001" lon="6.902730000000001">
    <ele>1577.2400000000002</ele>
   </trkpt>
   <trkpt lat="45.932750000000006" lon="6.902550000000001">
    <ele>1578.1900000000003</ele>
   </trkpt>
   <trkpt lat="45.93274" lon="6.902430000000001">
    <ele>1578.1900000000003</ele>
   </trkpt>
   <trkpt lat="45.932700000000004" lon="6.90237">
    <ele>1584.23</ele>
   </trkpt>
   <trkpt lat="45.93265" lon="6.902360000000001">
    <ele>1584.23</ele>
   </trkpt>
   <trkpt lat="45.9326" lon="6.90237">
    <ele>1584.23</ele>
   </trkpt>
   <trkpt lat="45.93263" lon="6.902640000000001">
    <ele>1586.9400000000003</ele>
   </trkpt>
   <trkpt lat="45.93271000000001" lon="6.9030000000000005">
    <ele>1590.03</ele>
   </trkpt>
   <trkpt lat="45.93271000000001" lon="6.903110000000001">
    <ele>1592.14</ele>
   </trkpt>
   <trkpt lat="45.93278" lon="6.90331">
    <ele>1593.69</ele>
   </trkpt>
   <trkpt lat="45.93281" lon="6.90333">
    <ele>1596.1000000000001</ele>
   </trkpt>
   <trkpt lat="45.932880000000004" lon="6.90345">
    <ele>1596.1000000000001</ele>
   </trkpt>
   <trkpt lat="45.93291000000001" lon="6.903580000000001">
    <ele>1600.2900000000002</ele>
   </trkpt>
   <trkpt lat="45.93300000000001" lon="6.903720000000001">
    <ele>1601.9</ele>
   </trkpt>
   <trkpt lat="45.93309000000001" lon="6.903980000000001">
    <ele>1604.93</ele>
   </trkpt>
   <trkpt lat="45.93312" lon="6.9042200000000005">
    <ele>1607.69</ele>
   </trkpt>
   <trkpt lat="45.93321" lon="6.904680000000001">
    <ele>1610.8000000000002</ele>
   </trkpt>
   <trkpt lat="45.93327" lon="6.904780000000001">
    <ele>1612.1000000000001</ele>
   </trkpt>
   <trkpt lat="45.933330000000005" lon="6.9048300000000005">
    <ele>1613.8400000000001</ele>
   </trkpt>
   <trkpt lat="45.93357" lon="6.90523">
    <ele>1621.88</ele>
   </trkpt>
   <trkpt lat="45.93357" lon="6.905450000000001">
    <ele>1623.7</ele>
   </trkpt>
   <trkpt lat="45.933530000000005" lon="6.905520000000001">
    <ele>1624.7300000000002</ele>
   </trkpt>
   <trkpt lat="45.933490000000006" lon="6.90549">
    <ele>1624.7300000000002</ele>
   </trkpt>
   <trkpt lat="45.93343" lon="6.905320000000001">
    <ele>1629.28</ele>
   </trkpt>
   <trkpt lat="45.93341" lon="6.90554">
    <ele>1633.65</ele>
   </trkpt>
   <trkpt lat="45.933440000000004" lon="6.905780000000001">
    <ele>1637.0800000000002</ele>
   </trkpt>
   <trkpt lat="45.933490000000006" lon="6.905920000000001">
    <ele>1639.7800000000002</ele>
   </trkpt>
   <trkpt lat="45.933510000000005" lon="6.906210000000001">
    <ele>1642.03</ele>
   </trkpt>
   <trkpt lat="45.93356000000001" lon="6.90641">
    <ele>1644.39</ele>
   </trkpt>
   <trkpt lat="45.933600000000006" lon="6.906510000000001">
    <ele>1645.8100000000002</ele>
   </trkpt>
   <trkpt lat="45.93372" lon="6.906610000000001">
    <ele>1647.69</ele>
   </trkpt>
   <trkpt lat="45.933910000000004" lon="6.906720000000001">
    <ele>1649.73</ele>
   </trkpt>
   <trkpt lat="45.934070000000006" lon="6.90699">
    <ele>1652.5800000000002</ele>
   </trkpt>
   <trkpt lat="45.934160000000006" lon="6.907050000000001">
    <ele>1654.1100000000001</ele>
   </trkpt>
   <trkpt lat="45.93419" lon="6.907140000000001">
    <ele>1655.93</ele>
   </trkpt>
   <trkpt lat="45.93412000000001" lon="6.9072000000000005">
    <ele>1658.21</ele>
   </trkpt>
   <trkpt lat="45.93406" lon="6.907190000000001">
    <ele>1658.21</ele>
   </trkpt>
   <trkpt lat="45.933870000000006" lon="6.9070100000000005">
    <ele>1665.18</ele>
   </trkpt>
   <trkpt lat="45.93374" lon="6.90692">
    <ele>1668.8</ele>
   </trkpt>
   <trkpt lat="45.933690000000006" lon="6.906910000000001">
    <ele>1668.8</ele>
   </trkpt>
   <trkpt lat="45.93372" lon="6.90704">
    <ele>1670.77</ele>
   </trkpt>
   <trkpt lat="45.933800000000005" lon="6.90711">
    <ele>1673.92</ele>
   </trkpt>
   <trkpt lat="45.933960000000006" lon="6.907380000000001">
    <ele>1679.42</ele>
   </trkpt>
   <trkpt lat="45.93397" lon="6.9074800000000005">
    <ele>1679.42</ele>
   </trkpt>
   <trkpt lat="45.93375" lon="6.90732">
    <ele>1686.67</ele>
   </trkpt>
   <trkpt lat="45.93368" lon="6.907290000000001">
    <ele>1686.67</ele>
   </trkpt>
   <trkpt lat="45.933690000000006" lon="6.907360000000001">
    <ele>1686.67</ele>
   </trkpt>
   <trkpt lat="45.933780000000006" lon="6.9074800000000005">
    <ele>1689.43</ele>
   </trkpt>
   <trkpt lat="45.933800000000005" lon="6.90756">
    <ele>1691.39</ele>
   </trkpt>
   <trkpt lat="45.93361" lon="6.907450000000001">
    <ele>1695.5200000000002</ele>
   </trkpt>
   <trkpt lat="45.93366" lon="6.907590000000001">
    <ele>1698.3700000000001</ele>
   </trkpt>
   <trkpt lat="45.93365000000001" lon="6.90767">
    <ele>1699.17</ele>
   </trkpt>
   <trkpt lat="45.93361" lon="6.9076900000000006">
    <ele>1699.8700000000001</ele>
   </trkpt>
   <trkpt lat="45.93341" lon="6.90732">
    <ele>1703.8500000000001</ele>
   </trkpt>
   <trkpt lat="45.93334" lon="6.9072700000000005">
    <ele>1705.7900000000002</ele>
   </trkpt>
   <trkpt lat="45.93347000000001" lon="6.907640000000001">
    <ele>1711.44</ele>
   </trkpt>
   <trkpt lat="45.93345" lon="6.907850000000001">
    <ele>1715.13</ele>
   </trkpt>
   <trkpt lat="45.93343" lon="6.90791">
    <ele>1715.13</ele>
   </trkpt>
   <trkpt lat="45.933400000000006" lon="6.907890000000001">
    <ele>1715.9700000000003</ele>
   </trkpt>
   <trkpt lat="45.93339" lon="6.90779">
    <ele>1716.71</ele>
   </trkpt>
   <trkpt lat="45.93319" lon="6.90751">
    <ele>1720.19</ele>
   </trkpt>
   <trkpt lat="45.93305" lon="6.9074100000000005">
    <ele>1723.14</ele>
   </trkpt>
   <trkpt lat="45.93305" lon="6.907430000000001">
    <ele>1723.14</ele>
   </trkpt>
   <trkpt lat="45.93328" lon="6.90772">
    <ele>1727.3500000000001</ele>
   </trkpt>
   <trkpt lat="45.933310000000006" lon="6.907820000000001">
    <ele>1728.6800000000003</ele>
   </trkpt>
   <trkpt lat="45.93332" lon="6.908">
    <ele>1730.8300000000002</ele>
   </trkpt>
   <trkpt lat="45.9333" lon="6.908130000000001">
    <ele>1730.8300000000002</ele>
   </trkpt>
   <trkpt lat="45.933240000000005" lon="6.908110000000001">
    <ele>1733.92</ele>
   </trkpt>
   <trkpt lat="45.93316" lon="6.9079500000000005">
    <ele>1735.3600000000001</ele>
   </trkpt>
   <trkpt lat="45.933060000000005" lon="6.907850000000001">
    <ele>1738.15</ele>
   </trkpt>
   <trkpt lat="45.932750000000006" lon="6.907680000000001">
    <ele>1739.64</ele>
   </trkpt>
   <trkpt lat="45.93269" lon="6.907610000000001">
    <ele>1747.5</ele>
   </trkpt>
   <trkpt lat="45.93271000000001" lon="6.90774">
    <ele>1747.5</ele>
   </trkpt>
   <trkpt lat="45.93287" lon="6.9080200000000005">
    <ele>1749.16</ele>
   </trkpt>
   <trkpt lat="45.93296" lon="6.908080000000001">
    <ele>1752.6000000000001</ele>
   </trkpt>
   <trkpt lat="45.932990000000004" lon="6.90812">
    <ele>1752.6000000000001</ele>
   </trkpt>
   <trkpt lat="45.932970000000005" lon="6.90817">
    <ele>1754.25</ele>
   </trkpt>
   <trkpt lat="45.93292" lon="6.9081600000000005">
    <ele>1755.0200000000002</ele>
   </trkpt>
   <trkpt lat="45.9328" lon="6.9080900000000005">
    <ele>1757.1000000000001</ele>
   </trkpt>
   <trkpt lat="45.932770000000005" lon="6.908130000000001">
    <ele>1757.72</ele>
   </trkpt>
   <trkpt lat="45.932880000000004" lon="6.908390000000001">
    <ele>1761.18</ele>
   </trkpt>
   <trkpt lat="45.93287" lon="6.908580000000001">
    <ele>1761.8300000000002</ele>
   </trkpt>
   <trkpt lat="45.932860000000005" lon="6.90889">
    <ele>1763.3500000000001</ele>
   </trkpt>
   <trkpt lat="45.932900000000004" lon="6.909160000000001">
    <ele>1765.33</ele>
   </trkpt>
   <trkpt lat="45.933020000000006" lon="6.909610000000001">
    <ele>1770.5700000000002</ele>
   </trkpt>
   <trkpt lat="45.93303" lon="6.909720000000001">
    <ele>1771.2</ele>
   </trkpt>
   <trkpt lat="45.93301" lon="6.909800000000001">
    <ele>1771.88</ele>
   </trkpt>
   <trkpt lat="45.93305" lon="6.90997">
    <ele>1774.67</ele>
   </trkpt>
   <trkpt lat="45.93309000000001" lon="6.910340000000001">
    <ele>1778.9800000000002</ele>
   </trkpt>
   <trkpt lat="45.933130000000006" lon="6.91049">
    <ele>1778.9800000000002</ele>
   </trkpt>
   <trkpt lat="45.933150000000005" lon="6.9113500000000005">
    <ele>1788.46</ele>
   </trkpt>
   <trkpt lat="45.93321" lon="6.91159">
    <ele>1790.7</ele>
   </trkpt>
   <trkpt lat="45.93361" lon="6.91241">
    <ele>1800.44</ele>
   </trkpt>
   <trkpt lat="45.933600000000006" lon="6.91244">
    <ele>1800.44</ele>
   </trkpt>
   <trkpt lat="45.93356000000001" lon="6.91244">
    <ele>1800.44</ele>
   </trkpt>
   <trkpt lat="45.933350000000004" lon="6.91227">
    <ele>1806.0300000000002</ele>
   </trkpt>
   <trkpt lat="45.93332" lon="6.91227">
    <ele>1808.96</ele>
   </trkpt>
   <trkpt lat="45.933620000000005" lon="6.91272">
    <ele>1812.52</ele>
   </trkpt>
   <trkpt lat="45.93397" lon="6.9131800000000005">
    <ele>1816.93</ele>
   </trkpt>
   <trkpt lat="45.93404" lon="6.91323">
    <ele>1817.56</ele>
   </trkpt>
   <trkpt lat="45.93415" lon="6.913240000000001">
    <ele>1819.15</ele>
   </trkpt>
   <trkpt lat="45.93424" lon="6.913310000000001">
    <ele>1820.69</ele>
   </trkpt>
   <trkpt lat="45.93431" lon="6.913500000000001">
    <ele>1823.2700000000002</ele>
   </trkpt>
   <trkpt lat="45.9343" lon="6.913550000000001">
    <ele>1823.2700000000002</ele>
   </trkpt>
   <trkpt lat="45.934200000000004" lon="6.913450000000001">
    <ele>1825.67</ele>
   </trkpt>
   <trkpt lat="45.93431" lon="6.913710000000001">
    <ele>1828.15</ele>
   </trkpt>
   <trkpt lat="45.934270000000005" lon="6.9138">
    <ele>1833.22</ele>
   </trkpt>
   <trkpt lat="45.93421" lon="6.91403">
    <ele>1833.22</ele>
   </trkpt>
   <trkpt lat="45.93423000000001" lon="6.914160000000001">
    <ele>1836.2900000000002</ele>
   </trkpt>
   <trkpt lat="45.93421" lon="6.914350000000001">
    <ele>1837.7200000000003</ele>
   </trkpt>
   <trkpt lat="45.93415" lon="6.91445">
    <ele>1838.8300000000002</ele>
   </trkpt>
   <trkpt lat="45.933910000000004" lon="6.9145900000000005">
    <ele>1842.74</ele>
   </trkpt>
   <trkpt lat="45.93381" lon="6.914700000000001">
    <ele>1844.2600000000002</ele>
   </trkpt>
   <trkpt lat="45.93374" lon="6.91485">
    <ele>1847.63</ele>
   </trkpt>
   <trkpt lat="45.933690000000006" lon="6.915030000000001">
    <ele>1849.3100000000002</ele>
   </trkpt>
   <trkpt lat="45.93374" lon="6.9154100000000005">
    <ele>1853.8500000000001</ele>
   </trkpt>
   <trkpt lat="45.93385000000001" lon="6.9155500000000005">
    <ele>1855.8600000000001</ele>
   </trkpt>
   <trkpt lat="45.93392" lon="6.915990000000001">
    <ele>1859.5500000000002</ele>
   </trkpt>
   <trkpt lat="45.933910000000004" lon="6.916060000000001">
    <ele>1864.45</ele>
   </trkpt>
   <trkpt lat="45.933980000000005" lon="6.916390000000001">
    <ele>1865.79</ele>
   </trkpt>
   <trkpt lat="45.934070000000006" lon="6.916500000000001">
    <ele>1868.2900000000002</ele>
   </trkpt>
   <trkpt lat="45.93413" lon="6.91668">
    <ele>1869.7100000000003</ele>
   </trkpt>
   <trkpt lat="45.93433" lon="6.916860000000001">
    <ele>1873.0600000000002</ele>
   </trkpt>
   <trkpt lat="45.93435" lon="6.916930000000001">
    <ele>1876.8700000000001</ele>
   </trkpt>
   <trkpt lat="45.93431" lon="6.916970000000001">
    <ele>1876.8700000000001</ele>
   </trkpt>
   <trkpt lat="45.934020000000004" lon="6.916860000000001">
    <ele>1884.0700000000002</ele>
   </trkpt>
   <trkpt lat="45.933930000000004" lon="6.916880000000001">
    <ele>1884.0700000000002</ele>
   </trkpt>
   <trkpt lat="45.933890000000005" lon="6.91685">
    <ele>1884.0700000000002</ele>
   </trkpt>
   <trkpt lat="45.93379" lon="6.916860000000001">
    <ele>1887.6800000000003</ele>
   </trkpt>
   <trkpt lat="45.93363" lon="6.9168400000000005">
    <ele>1890.1000000000001</ele>
   </trkpt>
   <trkpt lat="45.93359" lon="6.916810000000001">
    <ele>1891.0000000000002</ele>
   </trkpt>
   <trkpt lat="45.933580000000006" lon="6.9168">
    <ele>1891.3300000000002</ele>
   </trkpt>
   <trkpt lat="45.93345" lon="6.916720000000001">
    <ele>1893.67</ele>
   </trkpt>
   <trkpt lat="45.93345" lon="6.91668">
    <ele>1894.45</ele>
   </trkpt>
   <trkpt lat="45.93338000000001" lon="6.916640000000001">
    <ele>1895.2900000000002</ele>
   </trkpt>
   <trkpt lat="45.93338000000001" lon="6.91659">
    <ele>1896.1900000000003</ele>
   </trkpt>
   <trkpt lat="45.93327" lon="6.91638">
    <ele>1900.0500000000002</ele>
   </trkpt>
   <trkpt lat="45.933220000000006" lon="6.916570000000001">
    <ele>1901.16</ele>
   </trkpt>
   <trkpt lat="45.933240000000005" lon="6.916860000000001">
    <ele>1901.82</ele>
   </trkpt>
   <trkpt lat="45.93320000000001" lon="6.917050000000001">
    <ele>1903.67</ele>
   </trkpt>
   <trkpt lat="45.933170000000004" lon="6.91699">
    <ele>1904.33</ele>
   </trkpt>
   <trkpt lat="45.93309000000001" lon="6.916620000000001">
    <ele>1906.8100000000002</ele>
   </trkpt>
   <trkpt lat="45.933060000000005" lon="6.916640000000001">
    <ele>1907.2000000000003</ele>
   </trkpt>
   <trkpt lat="45.932970000000005" lon="6.917020000000001">
    <ele>1910.13</ele>
   </trkpt>
   <trkpt lat="45.93281" lon="6.9170300000000005">
    <ele>1914.0800000000002</ele>
   </trkpt>
   <trkpt lat="45.93276" lon="6.916930000000001">
    <ele>1915.92</ele>
   </trkpt>
   <trkpt lat="45.93269" lon="6.91692">
    <ele>1915.92</ele>
   </trkpt>
   <trkpt lat="45.9326" lon="6.916970000000001">
    <ele>1920.4200000000003</ele>
   </trkpt>
   <trkpt lat="45.932550000000006" lon="6.91694">
    <ele>1920.4200000000003</ele>
   </trkpt>
   <trkpt lat="45.93258" lon="6.91678">
    <ele>1924.2700000000002</ele>
   </trkpt>
   <trkpt lat="45.932570000000005" lon="6.91673">
    <ele>1924.2700000000002</ele>
   </trkpt>
   <trkpt lat="45.93254" lon="6.916720000000001">
    <ele>1924.2700000000002</ele>
   </trkpt>
   <trkpt lat="45.932520000000004" lon="6.91668">
    <ele>1927.0600000000002</ele>
   </trkpt>
   <trkpt lat="45.932480000000005" lon="6.916670000000001">
    <ele>1927.0600000000002</ele>
   </trkpt>
   <trkpt lat="45.932430000000004" lon="6.916570000000001">
    <ele>1929.63</ele>
   </trkpt>
   <trkpt lat="45.9324" lon="6.9165600000000005">
    <ele>1930.8</ele>
   </trkpt>
   <trkpt lat="45.932370000000006" lon="6.916580000000001">
    <ele>1933.0200000000002</ele>
   </trkpt>
   <trkpt lat="45.93236" lon="6.916570000000001">
    <ele>1933.0200000000002</ele>
   </trkpt>
   <trkpt lat="45.93226000000001" lon="6.91671">
    <ele>1936.53</ele>
   </trkpt>
   <trkpt lat="45.9322" lon="6.916690000000001">
    <ele>1937.6000000000001</ele>
   </trkpt>
   <trkpt lat="45.932120000000005" lon="6.916720000000001">
    <ele>1939.46</ele>
   </trkpt>
   <trkpt lat="45.93189" lon="6.916690000000001">
    <ele>1943.0800000000002</ele>
   </trkpt>
   <trkpt lat="45.93155" lon="6.916600000000001">
    <ele>1947.69</ele>
   </trkpt>
   <trkpt lat="45.93108" lon="6.9167000000000005">
    <ele>1956.0700000000002</ele>
   </trkpt>
   <trkpt lat="45.93101" lon="6.916670000000001">
    <ele>1957.3600000000001</ele>
   </trkpt>
   <trkpt lat="45.93075" lon="6.916500000000001">
    <ele>1964.71</ele>
   </trkpt>
   <trkpt lat="45.930440000000004" lon="6.91635">
    <ele>1974.22</ele>
   </trkpt>
   <trkpt lat="45.93016" lon="6.916500000000001">
    <ele>1979.3500000000001</ele>
   </trkpt>
   <trkpt lat="45.92998" lon="6.916690000000001">
    <ele>1983.64</ele>
   </trkpt>
   <trkpt lat="45.92981" lon="6.91671">
    <ele>1986.73</ele>
   </trkpt>
   <trkpt lat="45.929660000000005" lon="6.916740000000001">
    <ele>1989.1900000000003</ele>
   </trkpt>
   <trkpt lat="45.929230000000004" lon="6.91675">
    <ele>1995.6200000000001</ele>
   </trkpt>
   <trkpt lat="45.929140000000004" lon="6.91671">
    <ele>1997.1900000000003</ele>
   </trkpt>
   <trkpt lat="45.92891" lon="6.916690000000001">
    <ele>2003.4499999999998</ele>
   </trkpt>
   <trkpt lat="45.92837" lon="6.916460000000001">
    <ele>2015.52</ele>
   </trkpt>
   <trkpt lat="45.92913" lon="6.916180000000001">
    <ele>2034.3400000000001</ele>
   </trkpt>
   <trkpt lat="45.92936" lon="6.91605">
    <ele>2038.6200000000003</ele>
   </trkpt>
   <trkpt lat="45.929570000000005" lon="6.91584">
    <ele>2043.2200000000003</ele>
   </trkpt>
   <trkpt lat="45.92954" lon="6.91574">
    <ele>2046.6000000000001</ele>
   </trkpt>
   <trkpt lat="45.92936" lon="6.915760000000001">
    <ele>2051.53</ele>
   </trkpt>
   <trkpt lat="45.929410000000004" lon="6.915680000000001">
    <ele>2052.7000000000003</ele>
   </trkpt>
   <trkpt lat="45.9288550001021" lon="6.915559998807795">
    <ele>2065.86</ele>
   </trkpt>
   <trkpt lat="45.92830000000001" lon="6.91544">
    <ele>2080.29</ele>
   </trkpt>
   <trkpt lat="45.92841000000001" lon="6.91532">
    <ele>2082.2000000000003</ele>
   </trkpt>
   <trkpt lat="45.92803000000001" lon="6.91518">
    <ele>2090.8100000000004</ele>
   </trkpt>
   <trkpt lat="45.92835" lon="6.91502">
    <ele>2096.78</ele>
   </trkpt>
   <trkpt lat="45.9286" lon="6.91481">
    <ele>2102.16</ele>
   </trkpt>
   <trkpt lat="45.928900000000006" lon="6.91481">
    <ele>2108.55</ele>
   </trkpt>
   <trkpt lat="45.92902" lon="6.914560000000001">
    <ele>2115.55</ele>
   </trkpt>
   <trkpt lat="45.92909" lon="6.91429">
    <ele>2119.5699999999997</ele>
   </trkpt>
   <trkpt lat="45.929260000000006" lon="6.91384">
    <ele>2129.13</ele>
   </trkpt>
   <trkpt lat="45.929230000000004" lon="6.9137">
    <ele>2130.7500000000005</ele>
   </trkpt>
   <trkpt lat="45.92924000000001" lon="6.913410000000001">
    <ele>2134.62</ele>
   </trkpt>
   <trkpt lat="45.92913" lon="6.91356">
    <ele>2137.9100000000003</ele>
   </trkpt>
   <trkpt lat="45.92913" lon="6.913390000000001">
    <ele>2141.54</ele>
   </trkpt>
   <trkpt lat="45.92916" lon="6.913220000000001">
    <ele>2145.0400000000004</ele>
   </trkpt>
   <trkpt lat="45.929080000000006" lon="6.913270000000001">
    <ele>2146.2400000000002</ele>
   </trkpt>
   <trkpt lat="45.929100000000005" lon="6.913060000000001">
    <ele>2152.61</ele>
   </trkpt>
   <trkpt lat="45.92904" lon="6.91312">
    <ele>2152.61</ele>
   </trkpt>
   <trkpt lat="45.929030000000004" lon="6.9129700000000005">
    <ele>2152.61</ele>
   </trkpt>
   <trkpt lat="45.92906000000001" lon="6.912870000000001">
    <ele>2161.7300000000005</ele>
   </trkpt>
   <trkpt lat="45.928990000000006" lon="6.91288">
    <ele>2161.7300000000005</ele>
   </trkpt>
   <trkpt lat="45.928960000000004" lon="6.9129700000000005">
    <ele>2161.7300000000005</ele>
   </trkpt>
   <trkpt lat="45.92889" lon="6.912730000000001">
    <ele>2170.03</ele>
   </trkpt>
   <trkpt lat="45.92889" lon="6.91279">
    <ele>2170.03</ele>
   </trkpt>
   <trkpt lat="45.92886" lon="6.91281">
    <ele>2170.03</ele>
   </trkpt>
   <trkpt lat="45.9288" lon="6.912630000000001">
    <ele>2173.8</ele>
   </trkpt>
   <trkpt lat="45.92878" lon="6.912700000000001">
    <ele>2173.8</ele>
   </trkpt>
   <trkpt lat="45.92878" lon="6.912840000000001">
    <ele>2178.2400000000002</ele>
   </trkpt>
   <trkpt lat="45.928760000000004" lon="6.9129000000000005">
    <ele>2178.2400000000002</ele>
   </trkpt>
   <trkpt lat="45.92871" lon="6.912750000000001">
    <ele>2181.87</ele>
   </trkpt>
   <trkpt lat="45.92868000000001" lon="6.912750000000001">
    <ele>2183.02</ele>
   </trkpt>
   <trkpt lat="45.928650000000005" lon="6.91295">
    <ele>2187.43</ele>
   </trkpt>
   <trkpt lat="45.9286" lon="6.913">
    <ele>2187.43</ele>
   </trkpt>
   <trkpt lat="45.92857" lon="6.91298">
    <ele>2189.3900000000003</ele>
   </trkpt>
   <trkpt lat="45.928470000000004" lon="6.91265">
    <ele>2194.65</ele>
   </trkpt>
   <trkpt lat="45.928470000000004" lon="6.91246">
    <ele>2196.1600000000003</ele>
   </trkpt>
   <trkpt lat="45.928380000000004" lon="6.91232">
    <ele>2194.53</ele>
   </trkpt>
   <trkpt lat="45.92832000000001" lon="6.9121500000000005">
    <ele>2191.6200000000003</ele>
   </trkpt>
   <trkpt lat="45.92842" lon="6.91183">
    <ele>2189.23</ele>
   </trkpt>
   <trkpt lat="45.928490000000004" lon="6.911410000000001">
    <ele>2188.2000000000003</ele>
   </trkpt>
   <trkpt lat="45.928490000000004" lon="6.91129">
    <ele>2188.4100000000003</ele>
   </trkpt>
   <trkpt lat="45.92853" lon="6.911020000000001">
    <ele>2188.63</ele>
   </trkpt>
   <trkpt lat="45.92848" lon="6.9107400000000005">
    <ele>2187.6900000000005</ele>
   </trkpt>
   <trkpt lat="45.92848" lon="6.910730000000001">
    <ele>2187.67</ele>
   </trkpt>
   <trkpt lat="45.92846" lon="6.910590000000001">
    <ele>2186.9700000000003</ele>
   </trkpt>
   <trkpt lat="45.92824" lon="6.910030000000001">
    <ele>2180.15</ele>
   </trkpt>
   <trkpt lat="45.92804" lon="6.909720000000001">
    <ele>2174.9300000000003</ele>
   </trkpt>
   <trkpt lat="45.928000000000004" lon="6.909580000000001">
    <ele>2172.4700000000003</ele>
   </trkpt>
   <trkpt lat="45.927670000000006" lon="6.909230000000001">
    <ele>2166.79</ele>
   </trkpt>
   <trkpt lat="45.927530000000004" lon="6.90915">
    <ele>2165.9300000000003</ele>
   </trkpt>
   <trkpt lat="45.92743" lon="6.90889">
    <ele>2159.6900000000005</ele>
   </trkpt>
   <trkpt lat="45.927440000000004" lon="6.908790000000001">
    <ele>2158.92</ele>
   </trkpt>
   <trkpt lat="45.92741" lon="6.908650000000001">
    <ele>2156.6800000000003</ele>
   </trkpt>
   <trkpt lat="45.927200000000006" lon="6.90859">
    <ele>2152.0400000000004</ele>
   </trkpt>
   <trkpt lat="45.92700000000001" lon="6.90831">
    <ele>2148.76</ele>
   </trkpt>
   <trkpt lat="45.926880000000004" lon="6.908180000000001">
    <ele>2146.04</ele>
   </trkpt>
   <trkpt lat="45.92629" lon="6.90737">
    <ele>2138.07</ele>
   </trkpt>
   <trkpt lat="45.926" lon="6.907190000000001">
    <ele>2140.2200000000003</ele>
   </trkpt>
   <trkpt lat="45.92595" lon="6.907030000000001">
    <ele>2140.6200000000003</ele>
   </trkpt>
   <trkpt lat="45.925830000000005" lon="6.906890000000001">
    <ele>2140.2200000000003</ele>
   </trkpt>
   <trkpt lat="45.92557" lon="6.906720000000001">
    <ele>2140.79</ele>
   </trkpt>
   <trkpt lat="45.92546" lon="6.906720000000001">
    <ele>2141.01</ele>
   </trkpt>
   <trkpt lat="45.92515" lon="6.906600000000001">
    <ele>2140.5000000000005</ele>
   </trkpt>
   <trkpt lat="45.92486" lon="6.90636">
    <ele>2138.84</ele>
   </trkpt>
   <trkpt lat="45.92457" lon="6.90603">
    <ele>2140.8300000000004</ele>
   </trkpt>
   <trkpt lat="45.924130000000005" lon="6.9058">
    <ele>2141.86</ele>
   </trkpt>
   <trkpt lat="45.92391000000001" lon="6.9058600000000006">
    <ele>2139.7700000000004</ele>
   </trkpt>
   <trkpt lat="45.92372" lon="6.906130000000001">
    <ele>2134.98</ele>
   </trkpt>
   <trkpt lat="45.923610000000004" lon="6.90622">
    <ele>2131.71</ele>
   </trkpt>
   <trkpt lat="45.92347" lon="6.90629">
    <ele>2130.02</ele>
   </trkpt>
   <trkpt lat="45.923320000000004" lon="6.9061900000000005">
    <ele>2128.2200000000003</ele>
   </trkpt>
   <trkpt lat="45.923320000000004" lon="6.90617">
    <ele>2128.2200000000003</ele>
   </trkpt>
   <trkpt lat="45.92349" lon="6.906160000000001">
    <ele>2123.5099999999998</ele>
   </trkpt>
   <trkpt lat="45.92349" lon="6.906140000000001">
    <ele>2122.52</ele>
   </trkpt>
   <trkpt lat="45.92334" lon="6.906040000000001">
    <ele>2118.17</ele>
   </trkpt>
   <trkpt lat="45.92349" lon="6.90601">
    <ele>2115.0</ele>
   </trkpt>
   <trkpt lat="45.92351" lon="6.905920000000001">
    <ele>2113.82</ele>
   </trkpt>
   <trkpt lat="45.92343" lon="6.905950000000001">
    <ele>2108.8</ele>
   </trkpt>
   <trkpt lat="45.92338" lon="6.905900000000001">
    <ele>2108.8</ele>
   </trkpt>
   <trkpt lat="45.923460000000006" lon="6.90587">
    <ele>2108.8</ele>
   </trkpt>
   <trkpt lat="45.923500000000004" lon="6.90577">
    <ele>2105.2500000000005</ele>
   </trkpt>
   <trkpt lat="45.923570000000005" lon="6.905710000000001">
    <ele>2103.2300000000005</ele>
   </trkpt>
   <trkpt lat="45.923590000000004" lon="6.905590000000001">
    <ele>2102.07</ele>
   </trkpt>
   <trkpt lat="45.92352" lon="6.9056500000000005">
    <ele>2098.13</ele>
   </trkpt>
   <trkpt lat="45.92344000000001" lon="6.9056500000000005">
    <ele>2096.87</ele>
   </trkpt>
   <trkpt lat="45.923320000000004" lon="6.905710000000001">
    <ele>2093.29</ele>
   </trkpt>
   <trkpt lat="45.923300000000005" lon="6.905690000000001">
    <ele>2092.01</ele>
   </trkpt>
   <trkpt lat="45.923390000000005" lon="6.905530000000001">
    <ele>2087.9800000000005</ele>
   </trkpt>
   <trkpt lat="45.923210000000005" lon="6.905550000000001">
    <ele>2086.6900000000005</ele>
   </trkpt>
   <trkpt lat="45.92338" lon="6.905290000000001">
    <ele>2076.02</ele>
   </trkpt>
   <trkpt lat="45.923280000000005" lon="6.90533">
    <ele>2073.9700000000003</ele>
   </trkpt>
   <trkpt lat="45.92316" lon="6.90533">
    <ele>2071.4</ele>
   </trkpt>
   <trkpt lat="45.92313" lon="6.90535">
    <ele>2071.4</ele>
   </trkpt>
   <trkpt lat="45.923080000000006" lon="6.905320000000001">
    <ele>2070.2000000000003</ele>
   </trkpt>
   <trkpt lat="45.922630000000005" lon="6.9054400000000005">
    <ele>2067.9100000000003</ele>
   </trkpt>
   <trkpt lat="45.922560000000004" lon="6.905410000000001">
    <ele>2069.0099999999998</ele>
   </trkpt>
   <trkpt lat="45.92246" lon="6.9054400000000005">
    <ele>2069.48</ele>
   </trkpt>
   <trkpt lat="45.922270000000005" lon="6.905430000000001">
    <ele>2072.19</ele>
   </trkpt>
   <trkpt lat="45.922140000000006" lon="6.90554">
    <ele>2073.5</ele>
   </trkpt>
   <trkpt lat="45.92204" lon="6.905550000000001">
    <ele>2074.4700000000003</ele>
   </trkpt>
   <trkpt lat="45.92186" lon="6.905500000000001">
    <ele>2077.42</ele>
   </trkpt>
   <trkpt lat="45.921850000000006" lon="6.905500000000001">
    <ele>2077.55</ele>
   </trkpt>
   <trkpt lat="45.92163" lon="6.905450000000001">
    <ele>2082.9300000000003</ele>
   </trkpt>
   <trkpt lat="45.921420000000005" lon="6.905480000000001">
    <ele>2085.56</ele>
   </trkpt>
   <trkpt lat="45.92119" lon="6.90547">
    <ele>2086.85</ele>
   </trkpt>
   <trkpt lat="45.921040000000005" lon="6.905310000000001">
    <ele>2088.69</ele>
   </trkpt>
   <trkpt lat="45.920950000000005" lon="6.90526">
    <ele>2090.4700000000003</ele>
   </trkpt>
   <trkpt lat="45.920770000000005" lon="6.905240000000001">
    <ele>2091.59</ele>
   </trkpt>
   <trkpt lat="45.920640000000006" lon="6.9051800000000005">
    <ele>2091.67</ele>
   </trkpt>
   <trkpt lat="45.920230000000004" lon="6.90526">
    <ele>2090.37</ele>
   </trkpt>
   <trkpt lat="45.920100000000005" lon="6.90535">
    <ele>2090.0600000000004</ele>
   </trkpt>
   <trkpt lat="45.91977000000001" lon="6.90516">
    <ele>2090.49</ele>
   </trkpt>
   <trkpt lat="45.919650000000004" lon="6.90516">
    <ele>2090.88</ele>
   </trkpt>
   <trkpt lat="45.91951" lon="6.90509">
    <ele>2091.3500000000004</ele>
   </trkpt>
   <trkpt lat="45.919410000000006" lon="6.905010000000001">
    <ele>2092.3700000000003</ele>
   </trkpt>
   <trkpt lat="45.919250000000005" lon="6.90481">
    <ele>2092.94</ele>
   </trkpt>
   <trkpt lat="45.91922" lon="6.90469">
    <ele>2093.02</ele>
   </trkpt>
   <trkpt lat="45.91915" lon="6.904520000000001">
    <ele>2093.09</ele>
   </trkpt>
   <trkpt lat="45.918960000000006" lon="6.9042200000000005">
    <ele>2093.36</ele>
   </trkpt>
   <trkpt lat="45.91884" lon="6.904090000000001">
    <ele>2093.63</ele>
   </trkpt>
   <trkpt lat="45.91857" lon="6.903950000000001">
    <ele>2095.34</ele>
   </trkpt>
   <trkpt lat="45.91845000000001" lon="6.903770000000001">
    <ele>2096.27</ele>
   </trkpt>
   <trkpt lat="45.918380000000006" lon="6.903620000000001">
    <ele>2096.51</ele>
   </trkpt>
   <trkpt lat="45.918350000000004" lon="6.903480000000001">
    <ele>2096.63</ele>
   </trkpt>
   <trkpt lat="45.918260000000004" lon="6.903250000000001">
    <ele>2097.77</ele>
   </trkpt>
   <trkpt lat="45.918220000000005" lon="6.90319">
    <ele>2098.59</ele>
   </trkpt>
   <trkpt lat="45.918200000000006" lon="6.903080000000001">
    <ele>2098.8900000000003</ele>
   </trkpt>
   <trkpt lat="45.918240000000004" lon="6.90298">
    <ele>2099.01</ele>
   </trkpt>
   <trkpt lat="45.918220000000005" lon="6.90289">
    <ele>2098.52</ele>
   </trkpt>
   <trkpt lat="45.917950000000005" lon="6.902660000000001">
    <ele>2096.9900000000002</ele>
   </trkpt>
   <trkpt lat="45.91785" lon="6.902660000000001">
    <ele>2096.57</ele>
   </trkpt>
   <trkpt lat="45.91751000000001" lon="6.90282">
    <ele>2095.73</ele>
   </trkpt>
   <trkpt lat="45.917320000000004" lon="6.902870000000001">
    <ele>2098.3</ele>
   </trkpt>
   <trkpt lat="45.9172" lon="6.90284">
    <ele>2099.8</ele>
   </trkpt>
   <trkpt lat="45.91715000000001" lon="6.902710000000001">
    <ele>2104.1000000000004</ele>
   </trkpt>
   <trkpt lat="45.917120000000004" lon="6.9024600000000005">
    <ele>2104.7900000000004</ele>
   </trkpt>
   <trkpt lat="45.917120000000004" lon="6.9023200000000005">
    <ele>2105.98</ele>
   </trkpt>
   <trkpt lat="45.917060000000006" lon="6.90195">
    <ele>2106.7500000000005</ele>
   </trkpt>
   <trkpt lat="45.916880000000006" lon="6.90167">
    <ele>2106.79</ele>
   </trkpt>
   <trkpt lat="45.916830000000004" lon="6.901540000000001">
    <ele>2106.53</ele>
   </trkpt>
   <trkpt lat="45.91662" lon="6.90134">
    <ele>2106.9900000000002</ele>
   </trkpt>
   <trkpt lat="45.916540000000005" lon="6.901330000000001">
    <ele>2107.19</ele>
   </trkpt>
   <trkpt lat="45.916450000000005" lon="6.901230000000001">
    <ele>2107.11</ele>
   </trkpt>
   <trkpt lat="45.916380000000004" lon="6.901110000000001">
    <ele>2106.1400000000003</ele>
   </trkpt>
   <trkpt lat="45.9162" lon="6.900970000000001">
    <ele>2103.5000000000005</ele>
   </trkpt>
   <trkpt lat="45.916000000000004" lon="6.900640000000001">
    <ele>2101.6700000000005</ele>
   </trkpt>
   <trkpt lat="45.91592000000001" lon="6.9006300000000005">
    <ele>2101.29</ele>
   </trkpt>
   <trkpt lat="45.915850000000006" lon="6.90042">
    <ele>2100.01</ele>
   </trkpt>
   <trkpt lat="45.91575" lon="6.90038">
    <ele>2099.7799999999997</ele>
   </trkpt>
   <trkpt lat="45.915670000000006" lon="6.900250000000001">
    <ele>2099.98</ele>
   </trkpt>
   <trkpt lat="45.915670000000006" lon="6.90024">
    <ele>2100.01</ele>
   </trkpt>
   <trkpt lat="45.91559" lon="6.900110000000001">
    <ele>2100.3700000000003</ele>
   </trkpt>
   <trkpt lat="45.91527000000001" lon="6.8997">
    <ele>2098.7200000000003</ele>
   </trkpt>
   <trkpt lat="45.91519" lon="6.89953">
    <ele>2100.15</ele>
   </trkpt>
   <trkpt lat="45.91519" lon="6.899430000000001">
    <ele>2101.54</ele>
   </trkpt>
   <trkpt lat="45.914820000000006" lon="6.89904">
    <ele>2105.84</ele>
   </trkpt>
   <trkpt lat="45.91460000000001" lon="6.89876">
    <ele>2110.61</ele>
   </trkpt>
   <trkpt lat="45.914440000000006" lon="6.898530000000001">
    <ele>2113.29</ele>
   </trkpt>
   <trkpt lat="45.91436" lon="6.898350000000001">
    <ele>2114.42</ele>
   </trkpt>
   <trkpt lat="45.91413000000001" lon="6.8980500000000005">
    <ele>2117.69</ele>
   </trkpt>
   <trkpt lat="45.913740000000004" lon="6.89803">
    <ele>2123.12</ele>
   </trkpt>
   <trkpt lat="45.913410000000006" lon="6.8977200000000005">
    <ele>2127.18</ele>
   </trkpt>
   <trkpt lat="45.91329" lon="6.89775">
    <ele>2128.76</ele>
   </trkpt>
   <trkpt lat="45.913120000000006" lon="6.897620000000001">
    <ele>2132.9700000000003</ele>
   </trkpt>
   <trkpt lat="45.913030000000006" lon="6.897670000000001">
    <ele>2134.44</ele>
   </trkpt>
   <trkpt lat="45.913000000000004" lon="6.89766">
    <ele>2135.7799999999997</ele>
   </trkpt>
   <trkpt lat="45.91295" lon="6.897500000000001">
    <ele>2135.7799999999997</ele>
   </trkpt>
   <trkpt lat="45.91282" lon="6.8973700000000004">
    <ele>2139.01</ele>
   </trkpt>
   <trkpt lat="45.91252" lon="6.8972500000000005">
    <ele>2143.32</ele>
   </trkpt>
   <trkpt lat="45.91234" lon="6.897150000000001">
    <ele>2146.56</ele>
   </trkpt>
   <trkpt lat="45.911640000000006" lon="6.896540000000001">
    <ele>2140.7400000000002</ele>
   </trkpt>
   <trkpt lat="45.91142000000001" lon="6.896490000000001">
    <ele>2137.3100000000004</ele>
   </trkpt>
   <trkpt lat="45.91132" lon="6.8964300000000005">
    <ele>2136.25</ele>
   </trkpt>
   <trkpt lat="45.91129" lon="6.8963600000000005">
    <ele>2132.8300000000004</ele>
   </trkpt>
   <trkpt lat="45.910630000000005" lon="6.8962900000000005">
    <ele>2126.26</ele>
   </trkpt>
   <trkpt lat="45.910320000000006" lon="6.896020000000001">
    <ele>2127.98</ele>
   </trkpt>
   <trkpt lat="45.91030000000001" lon="6.8959600000000005">
    <ele>2128.6</ele>
   </trkpt>
   <trkpt lat="45.91030000000001" lon="6.8958900000000005">
    <ele>2130.1200000000003</ele>
   </trkpt>
   <trkpt lat="45.91029" lon="6.895910000000001">
    <ele>2130.1200000000003</ele>
   </trkpt>
   <trkpt lat="45.910270000000004" lon="6.8959">
    <ele>2130.1200000000003</ele>
   </trkpt>
   <trkpt lat="45.910270000000004" lon="6.895840000000001">
    <ele>2131.92</ele>
   </trkpt>
   <trkpt lat="45.910250000000005" lon="6.8958200000000005">
    <ele>2131.92</ele>
   </trkpt>
   <trkpt lat="45.91022" lon="6.895840000000001">
    <ele>2131.92</ele>
   </trkpt>
   <trkpt lat="45.910180000000004" lon="6.895910000000001">
    <ele>2135.72</ele>
   </trkpt>
   <trkpt lat="45.91002" lon="6.895480000000001">
    <ele>2140.1400000000003</ele>
   </trkpt>
   <trkpt lat="45.90995" lon="6.895390000000001">
    <ele>2140.52</ele>
   </trkpt>
   <trkpt lat="45.909780000000005" lon="6.895320000000001">
    <ele>2140.19</ele>
   </trkpt>
   <trkpt lat="45.90977" lon="6.895320000000001">
    <ele>2140.2000000000003</ele>
   </trkpt>
   <trkpt lat="45.90973" lon="6.89531">
    <ele>2140.1700000000005</ele>
   </trkpt>
   <trkpt lat="45.90955" lon="6.895150000000001">
    <ele>2141.4600000000005</ele>
   </trkpt>
   <trkpt lat="45.90934" lon="6.894780000000001">
    <ele>2146.3900000000003</ele>
   </trkpt>
   <trkpt lat="45.909060000000004" lon="6.89458">
    <ele>2148.4300000000003</ele>
   </trkpt>
   <trkpt lat="45.90881" lon="6.894290000000001">
    <ele>2151.45</ele>
   </trkpt>
   <trkpt lat="45.90876" lon="6.8940600000000005">
    <ele>2152.94</ele>
   </trkpt>
   <trkpt lat="45.908620000000006" lon="6.8935900000000006">
    <ele>2154.9500000000003</ele>
   </trkpt>
   <trkpt lat="45.90845" lon="6.8931700000000005">
    <ele>2158.3900000000003</ele>
   </trkpt>
   <trkpt lat="45.908240000000006" lon="6.89289">
    <ele>2160.7100000000005</ele>
   </trkpt>
   <trkpt lat="45.90813000000001" lon="6.89289">
    <ele>2161.8</ele>
   </trkpt>
   <trkpt lat="45.908030000000004" lon="6.892860000000001">
    <ele>2162.21</ele>
   </trkpt>
   <trkpt lat="45.90802" lon="6.892740000000001">
    <ele>2161.9300000000003</ele>
   </trkpt>
   <trkpt lat="45.90804000000001" lon="6.892580000000001">
    <ele>2160.79</ele>
   </trkpt>
   <trkpt lat="45.90802" lon="6.892410000000001">
    <ele>2158.5400000000004</ele>
   </trkpt>
   <trkpt lat="45.907990000000005" lon="6.89235">
    <ele>2157.84</ele>
   </trkpt>
   <trkpt lat="45.907970000000006" lon="6.892200000000001">
    <ele>2156.54</ele>
   </trkpt>
   <trkpt lat="45.907830000000004" lon="6.8918800000000005">
    <ele>2152.88</ele>
   </trkpt>
   <trkpt lat="45.90742" lon="6.891260000000001">
    <ele>2151.58</ele>
   </trkpt>
   <trkpt lat="45.90711" lon="6.89085">
    <ele>2151.57</ele>
   </trkpt>
   <trkpt lat="45.90711" lon="6.890840000000001">
    <ele>2151.58</ele>
   </trkpt>
   <trkpt lat="45.90706" lon="6.89078">
    <ele>2151.6800000000003</ele>
   </trkpt>
   <trkpt lat="45.906850000000006" lon="6.890370000000001">
    <ele>2152.4</ele>
   </trkpt>
   <trkpt lat="45.90663000000001" lon="6.890110000000001">
    <ele>2151.05</ele>
   </trkpt>
   <trkpt lat="45.90646" lon="6.89008">
    <ele>2149.71</ele>
   </trkpt>
   <trkpt lat="45.90639" lon="6.89003">
    <ele>2147.65</ele>
   </trkpt>
   <trkpt lat="45.90637" lon="6.889850000000001">
    <ele>2146.71</ele>
   </trkpt>
   <trkpt lat="45.90616000000001" lon="6.8897">
    <ele>2145.6000000000004</ele>
   </trkpt>
   <trkpt lat="45.906180000000006" lon="6.889430000000001">
    <ele>2146.1400000000003</ele>
   </trkpt>
   <trkpt lat="45.90616000000001" lon="6.889270000000001">
    <ele>2146.7200000000003</ele>
   </trkpt>
   <trkpt lat="45.90621" lon="6.88902">
    <ele>2151.13</ele>
   </trkpt>
   <trkpt lat="45.906180000000006" lon="6.8889700000000005">
    <ele>2151.13</ele>
   </trkpt>
   <trkpt lat="45.906040000000004" lon="6.889">
    <ele>2153.2200000000003</ele>
   </trkpt>
   <trkpt lat="45.906020000000005" lon="6.888960000000001">
    <ele>2156.66</ele>
   </trkpt>
   <trkpt lat="45.906040000000004" lon="6.88879">
    <ele>2157.76</ele>
   </trkpt>
   <trkpt lat="45.90601" lon="6.8886400000000005">
    <ele>2160.87</ele>
   </trkpt>
   <trkpt lat="45.90594" lon="6.88865">
    <ele>2161.9900000000002</ele>
   </trkpt>
   <trkpt lat="45.90596" lon="6.888490000000001">
    <ele>2166.97</ele>
   </trkpt>
   <trkpt lat="45.9059" lon="6.88846">
    <ele>2168.19</ele>
   </trkpt>
   <trkpt lat="45.90589000000001" lon="6.88804">
    <ele>2172.4300000000003</ele>
   </trkpt>
   <trkpt lat="45.90587000000001" lon="6.88797">
    <ele>2172.66</ele>
   </trkpt>
   <trkpt lat="45.905730000000005" lon="6.88773">
    <ele>2172.3500000000004</ele>
   </trkpt>
   <trkpt lat="45.90561" lon="6.887410000000001">
    <ele>2173.57</ele>
   </trkpt>
   <trkpt lat="45.90522000000001" lon="6.886660000000001">
    <ele>2183.34</ele>
   </trkpt>
   <trkpt lat="45.90514" lon="6.88642">
    <ele>2184.6800000000003</ele>
   </trkpt>
   <trkpt lat="45.905080000000005" lon="6.88635">
    <ele>2184.94</ele>
   </trkpt>
   <trkpt lat="45.904970000000006" lon="6.885770000000001">
    <ele>2183.53</ele>
   </trkpt>
   <trkpt lat="45.904970000000006" lon="6.88555">
    <ele>2182.8700000000003</ele>
   </trkpt>
   <trkpt lat="45.90502" lon="6.88541">
    <ele>2183.23</ele>
   </trkpt>
   <trkpt lat="45.905060000000006" lon="6.88536">
    <ele>2183.51</ele>
   </trkpt>
   <trkpt lat="45.9055" lon="6.885070000000001">
    <ele>2186.89</ele>
   </trkpt>
   <trkpt lat="45.905530000000006" lon="6.885020000000001">
    <ele>2187.25</ele>
   </trkpt>
   <trkpt lat="45.905680000000004" lon="6.88492">
    <ele>2187.92</ele>
   </trkpt>
   <trkpt lat="45.90574" lon="6.88494">
    <ele>2188.0200000000004</ele>
   </trkpt>
   <trkpt lat="45.906020000000005" lon="6.88485">
    <ele>2188.03</ele>
   </trkpt>
   <trkpt lat="45.906150000000004" lon="6.884650000000001">
    <ele>2188.1400000000003</ele>
   </trkpt>
   <trkpt lat="45.906180000000006" lon="6.884410000000001">
    <ele>2187.4100000000003</ele>
   </trkpt>
   <trkpt lat="45.9061" lon="6.88386">
    <ele>2185.4</ele>
   </trkpt>
   <trkpt lat="45.906020000000005" lon="6.88353">
    <ele>2186.23</ele>
   </trkpt>
   <trkpt lat="45.906020000000005" lon="6.883520000000001">
    <ele>2186.22</ele>
   </trkpt>
   <trkpt lat="45.906020000000005" lon="6.883430000000001">
    <ele>2187.04</ele>
   </trkpt>
   <trkpt lat="45.90596" lon="6.883210000000001">
    <ele>2187.5600000000004</ele>
   </trkpt>
   <trkpt lat="45.90588" lon="6.88302">
    <ele>2190.8100000000004</ele>
   </trkpt>
   <trkpt lat="45.90581" lon="6.88292">
    <ele>2191.6800000000003</ele>
   </trkpt>
   <trkpt lat="45.905770000000004" lon="6.882880000000001">
    <ele>2192.26</ele>
   </trkpt>
   <trkpt lat="45.905730000000005" lon="6.882880000000001">
    <ele>2192.26</ele>
   </trkpt>
   <trkpt lat="45.90565" lon="6.882960000000001">
    <ele>2192.9700000000003</ele>
   </trkpt>
   <trkpt lat="45.90552" lon="6.88285">
    <ele>2195.85</ele>
   </trkpt>
   <trkpt lat="45.9055" lon="6.882750000000001">
    <ele>2196.39</ele>
   </trkpt>
   <trkpt lat="45.90538" lon="6.88252">
    <ele>2195.16</ele>
   </trkpt>
   <trkpt lat="45.904900000000005" lon="6.88217">
    <ele>2182.57</ele>
   </trkpt>
   <trkpt lat="45.904740000000004" lon="6.88208">
    <ele>2181.2400000000002</ele>
   </trkpt>
   <trkpt lat="45.90464" lon="6.881990000000001">
    <ele>2180.0200000000004</ele>
   </trkpt>
   <trkpt lat="45.90457000000001" lon="6.88187">
    <ele>2178.94</ele>
   </trkpt>
   <trkpt lat="45.90446" lon="6.881810000000001">
    <ele>2177.68</ele>
   </trkpt>
   <trkpt lat="45.90438" lon="6.8817">
    <ele>2177.33</ele>
   </trkpt>
   <trkpt lat="45.90433" lon="6.881690000000001">
    <ele>2176.34</ele>
   </trkpt>
   <trkpt lat="45.90415" lon="6.88147">
    <ele>2174.3</ele>
   </trkpt>
   <trkpt lat="45.90397" lon="6.881170000000001">
    <ele>2170.42</ele>
   </trkpt>
   <trkpt lat="45.903740000000006" lon="6.880980000000001">
    <ele>2166.23</ele>
   </trkpt>
   <trkpt lat="45.903760000000005" lon="6.880960000000001">
    <ele>2166.23</ele>
   </trkpt>
   <trkpt lat="45.90395" lon="6.881010000000001">
    <ele>2163.01</ele>
   </trkpt>
   <trkpt lat="45.90395" lon="6.880980000000001">
    <ele>2163.01</ele>
   </trkpt>
   <trkpt lat="45.90386" lon="6.880850000000001">
    <ele>2161.03</ele>
   </trkpt>
   <trkpt lat="45.903830000000006" lon="6.8808300000000004">
    <ele>2157.75</ele>
   </trkpt>
   <trkpt lat="45.903870000000005" lon="6.88081">
    <ele>2157.75</ele>
   </trkpt>
   <trkpt lat="45.903940000000006" lon="6.8808300000000004">
    <ele>2156.75</ele>
   </trkpt>
   <trkpt lat="45.90410000000001" lon="6.880960000000001">
    <ele>2152.59</ele>
   </trkpt>
   <trkpt lat="45.90406" lon="6.880870000000001">
    <ele>2151.7000000000003</ele>
   </trkpt>
   <trkpt lat="45.904070000000004" lon="6.880850000000001">
    <ele>2151.7000000000003</ele>
   </trkpt>
   <trkpt lat="45.90417" lon="6.880940000000001">
    <ele>2148.8900000000003</ele>
   </trkpt>
   <trkpt lat="45.9042" lon="6.880990000000001">
    <ele>2148.0200000000004</ele>
   </trkpt>
   <trkpt lat="45.90426" lon="6.880990000000001">
    <ele>2145.55</ele>
   </trkpt>
   <trkpt lat="45.90426" lon="6.880940000000001">
    <ele>2145.55</ele>
   </trkpt>
   <trkpt lat="45.904090000000004" lon="6.880700000000001">
    <ele>2142.1800000000003</ele>
   </trkpt>
   <trkpt lat="45.904160000000005" lon="6.880590000000001">
    <ele>2137.8</ele>
   </trkpt>
   <trkpt lat="45.90422" lon="6.880590000000001">
    <ele>2137.8</ele>
   </trkpt>
   <trkpt lat="45.90433" lon="6.88062">
    <ele>2136.12</ele>
   </trkpt>
   <trkpt lat="45.904410000000006" lon="6.88069">
    <ele>2133.9100000000003</ele>
   </trkpt>
   <trkpt lat="45.904590000000006" lon="6.880750000000001">
    <ele>2132.01</ele>
   </trkpt>
   <trkpt lat="45.904650000000004" lon="6.880800000000001">
    <ele>2130.98</ele>
   </trkpt>
   <trkpt lat="45.90464" lon="6.880800000000001">
    <ele>2131.0</ele>
   </trkpt>
   <trkpt lat="45.905120000000004" lon="6.88123">
    <ele>2133.27</ele>
   </trkpt>
   <trkpt lat="45.905350000000006" lon="6.88133">
    <ele>2130.9</ele>
   </trkpt>
   <trkpt lat="45.90538" lon="6.88133">
    <ele>2130.05</ele>
   </trkpt>
   <trkpt lat="45.905390000000004" lon="6.8813">
    <ele>2130.05</ele>
   </trkpt>
   <trkpt lat="45.905300000000004" lon="6.881200000000001">
    <ele>2126.6000000000004</ele>
   </trkpt>
   <trkpt lat="45.90531000000001" lon="6.881170000000001">
    <ele>2126.6000000000004</ele>
   </trkpt>
   <trkpt lat="45.905350000000006" lon="6.8811800000000005">
    <ele>2126.6000000000004</ele>
   </trkpt>
   <trkpt lat="45.90532" lon="6.881080000000001">
    <ele>2122.6000000000004</ele>
   </trkpt>
   <trkpt lat="45.90534" lon="6.88107">
    <ele>2122.6000000000004</ele>
   </trkpt>
   <trkpt lat="45.90543" lon="6.8811100000000005">
    <ele>2120.33</ele>
   </trkpt>
   <trkpt lat="45.90545" lon="6.881080000000001">
    <ele>2119.36</ele>
   </trkpt>
   <trkpt lat="45.905440000000006" lon="6.881050000000001">
    <ele>2118.4800000000005</ele>
   </trkpt>
   <trkpt lat="45.905370000000005" lon="6.880980000000001">
    <ele>2117.68</ele>
   </trkpt>
   <trkpt lat="45.90531000000001" lon="6.880960000000001">
    <ele>2115.4</ele>
   </trkpt>
   <trkpt lat="45.90518" lon="6.88081">
    <ele>2113.7200000000003</ele>
   </trkpt>
   <trkpt lat="45.90514" lon="6.88079">
    <ele>2111.8900000000003</ele>
   </trkpt>
   <trkpt lat="45.90514" lon="6.88076">
    <ele>2111.8900000000003</ele>
   </trkpt>
   <trkpt lat="45.905210000000004" lon="6.88074">
    <ele>2111.8900000000003</ele>
   </trkpt>
   <trkpt lat="45.90554" lon="6.88079">
    <ele>2104.55</ele>
   </trkpt>
   <trkpt lat="45.90565" lon="6.880910000000001">
    <ele>2100.82</ele>
   </trkpt>
   <trkpt lat="45.905590000000004" lon="6.8807100000000005">
    <ele>2098.46</ele>
   </trkpt>
   <trkpt lat="45.9055" lon="6.880610000000001">
    <ele>2096.48</ele>
   </trkpt>
   <trkpt lat="45.90549" lon="6.88048">
    <ele>2095.7799999999997</ele>
   </trkpt>
   <trkpt lat="45.905460000000005" lon="6.88041">
    <ele>2094.2400000000002</ele>
   </trkpt>
   <trkpt lat="45.90541" lon="6.88039">
    <ele>2094.2400000000002</ele>
   </trkpt>
   <trkpt lat="45.905010000000004" lon="6.87985">
    <ele>2081.21</ele>
   </trkpt>
   <trkpt lat="45.90491" lon="6.87978">
    <ele>2078.9600000000005</ele>
   </trkpt>
   <trkpt lat="45.90485" lon="6.87971">
    <ele>2076.96</ele>
   </trkpt>
   <trkpt lat="45.90485" lon="6.879670000000001">
    <ele>2076.96</ele>
   </trkpt>
   <trkpt lat="45.904900000000005" lon="6.87966">
    <ele>2076.02</ele>
   </trkpt>
   <trkpt lat="45.90491" lon="6.879630000000001">
    <ele>2076.02</ele>
   </trkpt>
   <trkpt lat="45.90471" lon="6.87943">
    <ele>2070.8</ele>
   </trkpt>
   <trkpt lat="45.904630000000004" lon="6.879410000000001">
    <ele>2069.19</ele>
   </trkpt>
   <trkpt lat="45.90462" lon="6.87938">
    <ele>2069.19</ele>
   </trkpt>
   <trkpt lat="45.904650000000004" lon="6.879340000000001">
    <ele>2066.9</ele>
   </trkpt>
   <trkpt lat="45.90471" lon="6.87933">
    <ele>2066.9</ele>
   </trkpt>
   <trkpt lat="45.90489" lon="6.879370000000001">
    <ele>2063.38</ele>
   </trkpt>
   <trkpt lat="45.90513000000001" lon="6.8795">
    <ele>2061.02</ele>
   </trkpt>
   <trkpt lat="45.905170000000005" lon="6.87954">
    <ele>2061.02</ele>
   </trkpt>
   <trkpt lat="45.90513000000001" lon="6.87943">
    <ele>2055.85</ele>
   </trkpt>
   <trkpt lat="45.90494" lon="6.879220000000001">
    <ele>2050.1400000000003</ele>
   </trkpt>
   <trkpt lat="45.904720000000005" lon="6.879010000000001">
    <ele>2047.8700000000001</ele>
   </trkpt>
   <trkpt lat="45.904720000000005" lon="6.878990000000001">
    <ele>2047.8700000000001</ele>
   </trkpt>
   <trkpt lat="45.90493" lon="6.879040000000001">
    <ele>2044.7700000000002</ele>
   </trkpt>
   <trkpt lat="45.90505" lon="6.879020000000001">
    <ele>2042.58</ele>
   </trkpt>
   <trkpt lat="45.90507" lon="6.878990000000001">
    <ele>2041.16</ele>
   </trkpt>
   <trkpt lat="45.90507" lon="6.87889">
    <ele>2040.49</ele>
   </trkpt>
   <trkpt lat="45.90484000000001" lon="6.87872">
    <ele>2037.7900000000002</ele>
   </trkpt>
   <trkpt lat="45.90469" lon="6.878500000000001">
    <ele>2034.67</ele>
   </trkpt>
   <trkpt lat="45.904610000000005" lon="6.878430000000001">
    <ele>2034.67</ele>
   </trkpt>
   <trkpt lat="45.90449" lon="6.8783900000000004">
    <ele>2030.23</ele>
   </trkpt>
   <trkpt lat="45.90448000000001" lon="6.878330000000001">
    <ele>2030.23</ele>
   </trkpt>
   <trkpt lat="45.904500000000006" lon="6.87832">
    <ele>2030.23</ele>
   </trkpt>
   <trkpt lat="45.90458" lon="6.878310000000001">
    <ele>2027.7500000000002</ele>
   </trkpt>
   <trkpt lat="45.904740000000004" lon="6.878340000000001">
    <ele>2024.7100000000003</ele>
   </trkpt>
   <trkpt lat="45.90475000000001" lon="6.87828">
    <ele>2024.7100000000003</ele>
   </trkpt>
   <trkpt lat="45.90467" lon="6.878220000000001">
    <ele>2023.06</ele>
   </trkpt>
   <trkpt lat="45.90449" lon="6.87816">
    <ele>2023.06</ele>
   </trkpt>
   <trkpt lat="45.90439000000001" lon="6.87818">
    <ele>2015.25</ele>
   </trkpt>
   <trkpt lat="45.904140000000005" lon="6.8783">
    <ele>2015.25</ele>
   </trkpt>
   <trkpt lat="45.90415" lon="6.878220000000001">
    <ele>2008.55</ele>
   </trkpt>
   <trkpt lat="45.9044" lon="6.8779">
    <ele>2003.2400000000002</ele>
   </trkpt>
   <trkpt lat="45.90451" lon="6.877820000000001">
    <ele>2003.2400000000002</ele>
   </trkpt>
   <trkpt lat="45.90453" lon="6.877790000000001">
    <ele>2000.7300000000002</ele>
   </trkpt>
   <trkpt lat="45.904520000000005" lon="6.87776">
    <ele>2000.7300000000002</ele>
   </trkpt>
   <trkpt lat="45.90449" lon="6.877750000000001">
    <ele>2000.7300000000002</ele>
   </trkpt>
   <trkpt lat="45.904300000000006" lon="6.87783">
    <ele>1997.1100000000001</ele>
   </trkpt>
   <trkpt lat="45.90415" lon="6.877930000000001">
    <ele>1995.0900000000001</ele>
   </trkpt>
   <trkpt lat="45.90399" lon="6.877980000000001">
    <ele>1992.5400000000002</ele>
   </trkpt>
   <trkpt lat="45.90392000000001" lon="6.878030000000001">
    <ele>1991.8300000000002</ele>
   </trkpt>
   <trkpt lat="45.90386" lon="6.878050000000001">
    <ele>1991.06</ele>
   </trkpt>
   <trkpt lat="45.903830000000006" lon="6.87804">
    <ele>1988.5900000000001</ele>
   </trkpt>
   <trkpt lat="45.90384" lon="6.8779900000000005">
    <ele>1988.5900000000001</ele>
   </trkpt>
   <trkpt lat="45.904" lon="6.87783">
    <ele>1986.9800000000002</ele>
   </trkpt>
   <trkpt lat="45.90415" lon="6.877630000000001">
    <ele>1982.08</ele>
   </trkpt>
   <trkpt lat="45.904140000000005" lon="6.877610000000001">
    <ele>1982.08</ele>
   </trkpt>
   <trkpt lat="45.904120000000006" lon="6.877610000000001">
    <ele>1982.08</ele>
   </trkpt>
   <trkpt lat="45.904" lon="6.87769">
    <ele>1979.1000000000001</ele>
   </trkpt>
   <trkpt lat="45.90390000000001" lon="6.87771">
    <ele>1979.1000000000001</ele>
   </trkpt>
   <trkpt lat="45.90379" lon="6.87776">
    <ele>1975.1200000000001</ele>
   </trkpt>
   <trkpt lat="45.90377" lon="6.877750000000001">
    <ele>1975.1200000000001</ele>
   </trkpt>
   <trkpt lat="45.90377" lon="6.877720000000001">
    <ele>1975.1200000000001</ele>
   </trkpt>
   <trkpt lat="45.90386" lon="6.877630000000001">
    <ele>1975.1200000000001</ele>
   </trkpt>
   <trkpt lat="45.90392000000001" lon="6.8776">
    <ele>1969.41</ele>
   </trkpt>
   <trkpt lat="45.903980000000004" lon="6.87753">
    <ele>1969.41</ele>
   </trkpt>
   <trkpt lat="45.903980000000004" lon="6.877510000000001">
    <ele>1969.41</ele>
   </trkpt>
   <trkpt lat="45.90395" lon="6.877510000000001">
    <ele>1969.41</ele>
   </trkpt>
   <trkpt lat="45.903890000000004" lon="6.87755">
    <ele>1967.7300000000002</ele>
   </trkpt>
   <trkpt lat="45.903800000000004" lon="6.877560000000001">
    <ele>1967.7300000000002</ele>
   </trkpt>
   <trkpt lat="45.90379" lon="6.87755">
    <ele>1964.1200000000001</ele>
   </trkpt>
   <trkpt lat="45.90379" lon="6.87753">
    <ele>1964.1200000000001</ele>
   </trkpt>
   <trkpt lat="45.90399" lon="6.87736">
    <ele>1960.64</ele>
   </trkpt>
   <trkpt lat="45.903980000000004" lon="6.87734">
    <ele>1960.64</ele>
   </trkpt>
   <trkpt lat="45.90388" lon="6.877350000000001">
    <ele>1958.8</ele>
   </trkpt>
   <trkpt lat="45.90381000000001" lon="6.8773800000000005">
    <ele>1955.8400000000001</ele>
   </trkpt>
   <trkpt lat="45.903780000000005" lon="6.877350000000001">
    <ele>1955.8400000000001</ele>
   </trkpt>
   <trkpt lat="45.903890000000004" lon="6.87722">
    <ele>1954.02</ele>
   </trkpt>
   <trkpt lat="45.90397" lon="6.877180000000001">
    <ele>1951.6000000000001</ele>
   </trkpt>
   <trkpt lat="45.903960000000005" lon="6.877160000000001">
    <ele>1951.6000000000001</ele>
   </trkpt>
   <trkpt lat="45.903890000000004" lon="6.877140000000001">
    <ele>1949.0800000000002</ele>
   </trkpt>
   <trkpt lat="45.90368" lon="6.8772">
    <ele>1946.74</ele>
   </trkpt>
   <trkpt lat="45.90334000000001" lon="6.87713">
    <ele>1940.92</ele>
   </trkpt>
   <trkpt lat="45.902950000000004" lon="6.8771">
    <ele>1933.73</ele>
   </trkpt>
   <trkpt lat="45.90285" lon="6.877120000000001">
    <ele>1932.2700000000002</ele>
   </trkpt>
   <trkpt lat="45.90265" lon="6.877180000000001">
    <ele>1929.5600000000002</ele>
   </trkpt>
   <trkpt lat="45.902460000000005" lon="6.877180000000001">
    <ele>1925.5000000000002</ele>
   </trkpt>
   <trkpt lat="45.902260000000005" lon="6.877280000000001">
    <ele>1923.64</ele>
   </trkpt>
   <trkpt lat="45.902190000000004" lon="6.87736">
    <ele>1920.8100000000002</ele>
   </trkpt>
   <trkpt lat="45.902010000000004" lon="6.87727">
    <ele>1918.8100000000002</ele>
   </trkpt>
   <trkpt lat="45.90196" lon="6.87722">
    <ele>1918.1100000000001</ele>
   </trkpt>
   <trkpt lat="45.901920000000004" lon="6.87713">
    <ele>1918.1100000000001</ele>
   </trkpt>
   <trkpt lat="45.901920000000004" lon="6.877020000000001">
    <ele>1914.47</ele>
   </trkpt>
   <trkpt lat="45.901860000000006" lon="6.8767700000000005">
    <ele>1912.14</ele>
   </trkpt>
   <trkpt lat="45.901900000000005" lon="6.876720000000001">
    <ele>1911.28</ele>
   </trkpt>
   <trkpt lat="45.901880000000006" lon="6.876600000000001">
    <ele>1909.41</ele>
   </trkpt>
   <trkpt lat="45.90191" lon="6.876600000000001">
    <ele>1909.41</ele>
   </trkpt>
   <trkpt lat="45.90207" lon="6.87685">
    <ele>1904.03</ele>
   </trkpt>
   <trkpt lat="45.90209" lon="6.876860000000001">
    <ele>1904.03</ele>
   </trkpt>
   <trkpt lat="45.902100000000004" lon="6.876830000000001">
    <ele>1904.03</ele>
   </trkpt>
   <trkpt lat="45.90194" lon="6.87628">
    <ele>1896.6200000000001</ele>
   </trkpt>
   <trkpt lat="45.901860000000006" lon="6.876250000000001">
    <ele>1895.0200000000002</ele>
   </trkpt>
   <trkpt lat="45.901970000000006" lon="6.876080000000001">
    <ele>1890.0200000000002</ele>
   </trkpt>
   <trkpt lat="45.902010000000004" lon="6.87607">
    <ele>1890.0200000000002</ele>
   </trkpt>
   <trkpt lat="45.90205" lon="6.876100000000001">
    <ele>1889.0900000000001</ele>
   </trkpt>
   <trkpt lat="45.90211" lon="6.87619">
    <ele>1887.42</ele>
   </trkpt>
   <trkpt lat="45.902170000000005" lon="6.8764">
    <ele>1884.6100000000001</ele>
   </trkpt>
   <trkpt lat="45.902150000000006" lon="6.876030000000001">
    <ele>1880.5800000000002</ele>
   </trkpt>
   <trkpt lat="45.90216" lon="6.875850000000001">
    <ele>1877.3200000000002</ele>
   </trkpt>
   <trkpt lat="45.902120000000004" lon="6.875780000000001">
    <ele>1877.3200000000002</ele>
   </trkpt>
   <trkpt lat="45.90196" lon="6.875710000000001">
    <ele>1874.71</ele>
   </trkpt>
   <trkpt lat="45.90198" lon="6.87565">
    <ele>1872.8300000000002</ele>
   </trkpt>
   <trkpt lat="45.902080000000005" lon="6.87553">
    <ele>1869.93</ele>
   </trkpt>
   <trkpt lat="45.90214" lon="6.87551">
    <ele>1869.0300000000002</ele>
   </trkpt>
   <trkpt lat="45.902210000000004" lon="6.87558">
    <ele>1867.3800000000003</ele>
   </trkpt>
   <trkpt lat="45.90227" lon="6.87572">
    <ele>1866.6200000000001</ele>
   </trkpt>
   <trkpt lat="45.902390000000004" lon="6.875920000000001">
    <ele>1863.72</ele>
   </trkpt>
   <trkpt lat="45.90241" lon="6.87591">
    <ele>1863.72</ele>
   </trkpt>
   <trkpt lat="45.902330000000006" lon="6.875590000000001">
    <ele>1859.23</ele>
   </trkpt>
   <trkpt lat="45.90225" lon="6.875120000000001">
    <ele>1852.64</ele>
   </trkpt>
   <trkpt lat="45.90214" lon="6.875050000000001">
    <ele>1850.91</ele>
   </trkpt>
   <trkpt lat="45.90214" lon="6.875000000000001">
    <ele>1850.91</ele>
   </trkpt>
   <trkpt lat="45.90222000000001" lon="6.87492">
    <ele>1847.1100000000001</ele>
   </trkpt>
   <trkpt lat="45.90229" lon="6.8749400000000005">
    <ele>1846.1900000000003</ele>
   </trkpt>
   <trkpt lat="45.9025" lon="6.87523">
    <ele>1839.9</ele>
   </trkpt>
   <trkpt lat="45.90260000000001" lon="6.875400000000001">
    <ele>1839.05</ele>
   </trkpt>
   <trkpt lat="45.902620000000006" lon="6.875380000000001">
    <ele>1839.05</ele>
   </trkpt>
   <trkpt lat="45.90252" lon="6.875050000000001">
    <ele>1832.7400000000002</ele>
   </trkpt>
   <trkpt lat="45.90241" lon="6.8744700000000005">
    <ele>1823.83</ele>
   </trkpt>
   <trkpt lat="45.902300000000004" lon="6.87438">
    <ele>1822.9700000000003</ele>
   </trkpt>
   <trkpt lat="45.90229" lon="6.87431">
    <ele>1820.27</ele>
   </trkpt>
   <trkpt lat="45.90232" lon="6.87429">
    <ele>1820.27</ele>
   </trkpt>
   <trkpt lat="45.902480000000004" lon="6.87436">
    <ele>1817.8</ele>
   </trkpt>
   <trkpt lat="45.90276" lon="6.874650000000001">
    <ele>1812.3200000000002</ele>
   </trkpt>
   <trkpt lat="45.90292" lon="6.874770000000001">
    <ele>1807.3600000000001</ele>
   </trkpt>
   <trkpt lat="45.90301" lon="6.874790000000001">
    <ele>1806.5700000000002</ele>
   </trkpt>
   <trkpt lat="45.9031" lon="6.874770000000001">
    <ele>1806.5700000000002</ele>
   </trkpt>
   <trkpt lat="45.90353" lon="6.8741900000000005">
    <ele>1794.9</ele>
   </trkpt>
   <trkpt lat="45.90366" lon="6.87417">
    <ele>1792.65</ele>
   </trkpt>
   <trkpt lat="45.904090000000004" lon="6.873900000000001">
    <ele>1783.7600000000002</ele>
   </trkpt>
   <trkpt lat="45.90437000000001" lon="6.873880000000001">
    <ele>1779.5200000000002</ele>
   </trkpt>
   <trkpt lat="45.90444" lon="6.8738600000000005">
    <ele>1778.68</ele>
   </trkpt>
   <trkpt lat="45.90422" lon="6.8737">
    <ele>1772.0300000000002</ele>
   </trkpt>
   <trkpt lat="45.90433" lon="6.87368">
    <ele>1769.9000000000003</ele>
   </trkpt>
   <trkpt lat="45.904610000000005" lon="6.873530000000001">
    <ele>1763.97</ele>
   </trkpt>
   <trkpt lat="45.90464" lon="6.87347">
    <ele>1763.0700000000002</ele>
   </trkpt>
   <trkpt lat="45.904320000000006" lon="6.873450000000001">
    <ele>1755.64</ele>
   </trkpt>
   <trkpt lat="45.9042" lon="6.873360000000001">
    <ele>1755.64</ele>
   </trkpt>
   <trkpt lat="45.90399" lon="6.8733200000000005">
    <ele>1749.1900000000003</ele>
   </trkpt>
   <trkpt lat="45.903670000000005" lon="6.873310000000001">
    <ele>1745.69</ele>
   </trkpt>
   <trkpt lat="45.90359" lon="6.87328">
    <ele>1741.75</ele>
   </trkpt>
   <trkpt lat="45.903940000000006" lon="6.8730400000000005">
    <ele>1735.21</ele>
   </trkpt>
   <trkpt lat="45.904450000000004" lon="6.87286">
    <ele>1725.7700000000002</ele>
   </trkpt>
   <trkpt lat="45.9052" lon="6.872160000000001">
    <ele>1708.71</ele>
   </trkpt>
   <trkpt lat="45.905480000000004" lon="6.872000000000001">
    <ele>1704.8400000000001</ele>
   </trkpt>
   <trkpt lat="45.905710000000006" lon="6.8720300000000005">
    <ele>1700.0400000000002</ele>
   </trkpt>
   <trkpt lat="45.90601" lon="6.87215">
    <ele>1693.31</ele>
   </trkpt>
   <trkpt lat="45.906130000000005" lon="6.8722900000000005">
    <ele>1691.51</ele>
   </trkpt>
   <trkpt lat="45.90616000000001" lon="6.872300000000001">
    <ele>1691.51</ele>
   </trkpt>
   <trkpt lat="45.906180000000006" lon="6.872260000000001">
    <ele>1687.72</ele>
   </trkpt>
   <trkpt lat="45.90617" lon="6.8722">
    <ele>1687.72</ele>
   </trkpt>
   <trkpt lat="45.905730000000005" lon="6.87154">
    <ele>1674.5900000000001</ele>
   </trkpt>
   <trkpt lat="45.90543" lon="6.8713500000000005">
    <ele>1668.4800000000002</ele>
   </trkpt>
   <trkpt lat="45.905260000000006" lon="6.871320000000001">
    <ele>1665.9</ele>
   </trkpt>
   <trkpt lat="45.90513000000001" lon="6.871340000000001">
    <ele>1662.3200000000002</ele>
   </trkpt>
   <trkpt lat="45.904740000000004" lon="6.8715">
    <ele>1657.14</ele>
   </trkpt>
   <trkpt lat="45.90457000000001" lon="6.8715">
    <ele>1652.0700000000002</ele>
   </trkpt>
   <trkpt lat="45.904520000000005" lon="6.871460000000001">
    <ele>1652.0700000000002</ele>
   </trkpt>
   <trkpt lat="45.90455" lon="6.87138">
    <ele>1648.42</ele>
   </trkpt>
   <trkpt lat="45.90485" lon="6.8711400000000005">
    <ele>1642.64</ele>
   </trkpt>
   <trkpt lat="45.90489" lon="6.871060000000001">
    <ele>1642.64</ele>
   </trkpt>
   <trkpt lat="45.90485" lon="6.871010000000001">
    <ele>1640.8700000000001</ele>
   </trkpt>
   <trkpt lat="45.904680000000006" lon="6.8711400000000005">
    <ele>1637.0800000000002</ele>
   </trkpt>
   <trkpt lat="45.90458" lon="6.871150000000001">
    <ele>1634.3</ele>
   </trkpt>
   <trkpt lat="45.90453" lon="6.87112">
    <ele>1634.3</ele>
   </trkpt>
   <trkpt lat="45.90451" lon="6.871040000000001">
    <ele>1633.31</ele>
   </trkpt>
   <trkpt lat="45.905190000000005" lon="6.870260000000001">
    <ele>1614.5300000000002</ele>
   </trkpt>
   <trkpt lat="45.905390000000004" lon="6.870220000000001">
    <ele>1613.6800000000003</ele>
   </trkpt>
   <trkpt lat="45.905770000000004" lon="6.870170000000001">
    <ele>1603.47</ele>
   </trkpt>
   <trkpt lat="45.90596" lon="6.87016">
    <ele>1602.0200000000002</ele>
   </trkpt>
   <trkpt lat="45.90612" lon="6.8702000000000005">
    <ele>1597.6100000000001</ele>
   </trkpt>
   <trkpt lat="45.90635" lon="6.870330000000001">
    <ele>1590.7300000000002</ele>
   </trkpt>
   <trkpt lat="45.90637" lon="6.87028">
    <ele>1590.7300000000002</ele>
   </trkpt>
   <trkpt lat="45.90636000000001" lon="6.870240000000001">
    <ele>1589.5100000000002</ele>
   </trkpt>
   <trkpt lat="45.90619" lon="6.8700600000000005">
    <ele>1584.93</ele>
   </trkpt>
   <trkpt lat="45.90617" lon="6.8699900000000005">
    <ele>1584.93</ele>
   </trkpt>
   <trkpt lat="45.906180000000006" lon="6.869980000000001">
    <ele>1583.2100000000003</ele>
   </trkpt>
   <trkpt lat="45.906270000000006" lon="6.870000000000001">
    <ele>1582.41</ele>
   </trkpt>
   <trkpt lat="45.90636000000001" lon="6.8700600000000005">
    <ele>1582.41</ele>
   </trkpt>
   <trkpt lat="45.90666" lon="6.87018">
    <ele>1572.14</ele>
   </trkpt>
   <trkpt lat="45.90742" lon="6.870730000000001">
    <ele>1559.7</ele>
   </trkpt>
   <trkpt lat="45.907430000000005" lon="6.87072">
    <ele>1559.7</ele>
   </trkpt>
   <trkpt lat="45.90737" lon="6.870500000000001">
    <ele>1555.2700000000002</ele>
   </trkpt>
   <trkpt lat="45.907270000000004" lon="6.870260000000001">
    <ele>1552.8500000000001</ele>
   </trkpt>
   <trkpt lat="45.907050000000005" lon="6.86995">
    <ele>1547.7800000000002</ele>
   </trkpt>
   <trkpt lat="45.90663000000001" lon="6.86948">
    <ele>1538.19</ele>
   </trkpt>
   <trkpt lat="45.906380000000006" lon="6.8692400000000005">
    <ele>1531.5900000000001</ele>
   </trkpt>
   <trkpt lat="45.906110000000005" lon="6.86894">
    <ele>1528.7</ele>
   </trkpt>
   <trkpt lat="45.905750000000005" lon="6.868780000000001">
    <ele>1524.0500000000002</ele>
   </trkpt>
   <trkpt lat="45.905370000000005" lon="6.868510000000001">
    <ele>1515.3500000000001</ele>
   </trkpt>
   <trkpt lat="45.905190000000005" lon="6.868460000000001">
    <ele>1513.0700000000002</ele>
   </trkpt>
   <trkpt lat="45.90498" lon="6.868460000000001">
    <ele>1510.5600000000002</ele>
   </trkpt>
   <trkpt lat="45.904740000000004" lon="6.86849">
    <ele>1503.41</ele>
   </trkpt>
   <trkpt lat="45.90464" lon="6.86847">
    <ele>1499.3200000000002</ele>
   </trkpt>
   <trkpt lat="45.904610000000005" lon="6.8684400000000005">
    <ele>1499.3200000000002</ele>
   </trkpt>
   <trkpt lat="45.904610000000005" lon="6.868360000000001">
    <ele>1499.3200000000002</ele>
   </trkpt>
   <trkpt lat="45.904650000000004" lon="6.8683000000000005">
    <ele>1497.43</ele>
   </trkpt>
   <trkpt lat="45.904790000000006" lon="6.86819">
    <ele>1494.8600000000001</ele>
   </trkpt>
   <trkpt lat="45.904920000000004" lon="6.868130000000001">
    <ele>1493.36</ele>
   </trkpt>
   <trkpt lat="45.90509" lon="6.867990000000001">
    <ele>1489.89</ele>
   </trkpt>
   <trkpt lat="45.90592" lon="6.868010000000001">
    <ele>1474.13</ele>
   </trkpt>
   <trkpt lat="45.90652" lon="6.867870000000001">
    <ele>1459.54</ele>
   </trkpt>
   <trkpt lat="45.90655" lon="6.86784">
    <ele>1458.41</ele>
   </trkpt>
   <trkpt lat="45.906560000000006" lon="6.867800000000001">
    <ele>1458.41</ele>
   </trkpt>
   <trkpt lat="45.90652" lon="6.867730000000001">
    <ele>1453.7600000000002</ele>
   </trkpt>
   <trkpt lat="45.906270000000006" lon="6.867540000000001">
    <ele>1449.2600000000002</ele>
   </trkpt>
   <trkpt lat="45.90598000000001" lon="6.867470000000001">
    <ele>1441.2900000000002</ele>
   </trkpt>
   <trkpt lat="45.90589000000001" lon="6.867430000000001">
    <ele>1440.2800000000002</ele>
   </trkpt>
   <trkpt lat="45.90588" lon="6.867400000000001">
    <ele>1440.2800000000002</ele>
   </trkpt>
   <trkpt lat="45.90589000000001" lon="6.86737">
    <ele>1440.2800000000002</ele>
   </trkpt>
   <trkpt lat="45.906110000000005" lon="6.86718">
    <ele>1432.67</ele>
   </trkpt>
   <trkpt lat="45.9063" lon="6.867140000000001">
    <ele>1426.8100000000002</ele>
   </trkpt>
   <trkpt lat="45.90652" lon="6.867030000000001">
    <ele>1420.9600000000003</ele>
   </trkpt>
   <trkpt lat="45.90675" lon="6.866980000000001">
    <ele>1419.93</ele>
   </trkpt>
   <trkpt lat="45.90706" lon="6.86699">
    <ele>1411.54</ele>
   </trkpt>
   <trkpt lat="45.907210000000006" lon="6.86709">
    <ele>1406.4</ele>
   </trkpt>
   <trkpt lat="45.90731" lon="6.86709">
    <ele>1406.4</ele>
   </trkpt>
   <trkpt lat="45.9074" lon="6.867170000000001">
    <ele>1402.5400000000002</ele>
   </trkpt>
   <trkpt lat="45.90749" lon="6.86718">
    <ele>1402.5400000000002</ele>
   </trkpt>
   <trkpt lat="45.90758" lon="6.86727">
    <ele>1398.39</ele>
   </trkpt>
   <trkpt lat="45.90776" lon="6.86732">
    <ele>1393.5900000000001</ele>
   </trkpt>
   <trkpt lat="45.90785" lon="6.86739">
    <ele>1390.92</ele>
   </trkpt>
   <trkpt lat="45.90796" lon="6.86737">
    <ele>1389.07</ele>
   </trkpt>
   <trkpt lat="45.908150000000006" lon="6.867450000000001">
    <ele>1385.1000000000001</ele>
   </trkpt>
   <trkpt lat="45.90841" lon="6.86763">
    <ele>1378.9</ele>
   </trkpt>
   <trkpt lat="45.908530000000006" lon="6.867900000000001">
    <ele>1374.26</ele>
   </trkpt>
   <trkpt lat="45.90878000000001" lon="6.86814">
    <ele>1366.1100000000001</ele>
   </trkpt>
   <trkpt lat="45.909040000000005" lon="6.868200000000001">
    <ele>1358.66</ele>
   </trkpt>
   <trkpt lat="45.909150000000004" lon="6.8683000000000005">
    <ele>1358.66</ele>
   </trkpt>
   <trkpt lat="45.90946" lon="6.86866">
    <ele>1350.8600000000001</ele>
   </trkpt>
   <trkpt lat="45.90975" lon="6.86887">
    <ele>1343.8000000000002</ele>
   </trkpt>
   <trkpt lat="45.909870000000005" lon="6.869020000000001">
    <ele>1339.13</ele>
   </trkpt>
   <trkpt lat="45.909980000000004" lon="6.869230000000001">
    <ele>1336.2500000000002</ele>
   </trkpt>
   <trkpt lat="45.91015" lon="6.8693800000000005">
    <ele>1330.67</ele>
   </trkpt>
   <trkpt lat="45.910340000000005" lon="6.8695900000000005">
    <ele>1322.7000000000003</ele>
   </trkpt>
   <trkpt lat="45.91051" lon="6.8699200000000005">
    <ele>1318.38</ele>
   </trkpt>
   <trkpt lat="45.910650000000004" lon="6.87011">
    <ele>1316.41</ele>
   </trkpt>
   <trkpt lat="45.91076" lon="6.870360000000001">
    <ele>1311.7800000000002</ele>
   </trkpt>
   <trkpt lat="45.91084" lon="6.8704600000000005">
    <ele>1306.0</ele>
   </trkpt>
   <trkpt lat="45.910940000000004" lon="6.87051">
    <ele>1306.0</ele>
   </trkpt>
   <trkpt lat="45.91105" lon="6.8706000000000005">
    <ele>1302.37</ele>
   </trkpt>
   <trkpt lat="45.91114" lon="6.870710000000001">
    <ele>1300.41</ele>
   </trkpt>
   <trkpt lat="45.91125" lon="6.8708100000000005">
    <ele>1297.3000000000002</ele>
   </trkpt>
   <trkpt lat="45.91154" lon="6.870950000000001">
    <ele>1289.89</ele>
   </trkpt>
   <trkpt lat="45.91178" lon="6.871180000000001">
    <ele>1284.51</ele>
   </trkpt>
   <trkpt lat="45.91178" lon="6.87117">
    <ele>1284.8700000000001</ele>
   </trkpt>
   <trkpt lat="45.912020000000005" lon="6.87131">
    <ele>1278.47</ele>
   </trkpt>
   <trkpt lat="45.912290000000006" lon="6.87152">
    <ele>1271.5200000000002</ele>
   </trkpt>
   <trkpt lat="45.912420000000004" lon="6.871670000000001">
    <ele>1269.5400000000002</ele>
   </trkpt>
   <trkpt lat="45.91252" lon="6.871720000000001">
    <ele>1265.76</ele>
   </trkpt>
   <trkpt lat="45.912850000000006" lon="6.872050000000001">
    <ele>1256.3000000000002</ele>
   </trkpt>
   <trkpt lat="45.913030000000006" lon="6.872190000000001">
    <ele>1253.5900000000001</ele>
   </trkpt>
   <trkpt lat="45.9132" lon="6.872370000000001">
    <ele>1250.15</ele>
   </trkpt>
   <trkpt lat="45.913540000000005" lon="6.87267">
    <ele>1240.92</ele>
   </trkpt>
   <trkpt lat="45.91375" lon="6.872940000000001">
    <ele>1233.54</ele>
   </trkpt>
   <trkpt lat="45.913970000000006" lon="6.87316">
    <ele>1224.7</ele>
   </trkpt>
   <trkpt lat="45.91404000000001" lon="6.87316">
    <ele>1219.41</ele>
   </trkpt>
   <trkpt lat="45.914170000000006" lon="6.873270000000001">
    <ele>1216.0900000000001</ele>
   </trkpt>
   <trkpt lat="45.914300000000004" lon="6.87347">
    <ele>1211.06</ele>
   </trkpt>
   <trkpt lat="45.91456" lon="6.8736500000000005">
    <ele>1200.93</ele>
   </trkpt>
   <trkpt lat="45.914680000000004" lon="6.873690000000001">
    <ele>1196.15</ele>
   </trkpt>
   <trkpt lat="45.914910000000006" lon="6.873730000000001">
    <ele>1189.63</ele>
   </trkpt>
   <trkpt lat="45.915040000000005" lon="6.873730000000001">
    <ele>1185.1299999999999</ele>
   </trkpt>
   <trkpt lat="45.915060000000004" lon="6.873710000000001">
    <ele>1185.1299999999999</ele>
   </trkpt>
   <trkpt lat="45.91499" lon="6.873570000000001">
    <ele>1180.0000000000002</ele>
   </trkpt>
   <trkpt lat="45.914930000000005" lon="6.87337">
    <ele>1171.6100000000001</ele>
   </trkpt>
   <trkpt lat="45.914930000000005" lon="6.873270000000001">
    <ele>1171.6100000000001</ele>
   </trkpt>
   <trkpt lat="45.914950000000005" lon="6.87323">
    <ele>1170.0900000000001</ele>
   </trkpt>
   <trkpt lat="45.91498000000001" lon="6.873220000000001">
    <ele>1170.0900000000001</ele>
   </trkpt>
   <trkpt lat="45.91514" lon="6.873220000000001">
    <ele>1162.7500000000002</ele>
   </trkpt>
   <trkpt lat="45.915150000000004" lon="6.87319">
    <ele>1162.7500000000002</ele>
   </trkpt>
   <trkpt lat="45.91514" lon="6.873080000000001">
    <ele>1162.7500000000002</ele>
   </trkpt>
   <trkpt lat="45.91499" lon="6.87283">
    <ele>1152.53</ele>
   </trkpt>
   <trkpt lat="45.9149" lon="6.87262">
    <ele>1146.59</ele>
   </trkpt>
   <trkpt lat="45.9149" lon="6.872560000000001">
    <ele>1143.17</ele>
   </trkpt>
   <trkpt lat="45.915000000000006" lon="6.872520000000001">
    <ele>1139.42</ele>
   </trkpt>
   <trkpt lat="45.91501" lon="6.87248">
    <ele>1139.42</ele>
   </trkpt>
   <trkpt lat="45.91496" lon="6.872170000000001">
    <ele>1126.05</ele>
   </trkpt>
   <trkpt lat="45.914970000000004" lon="6.87187">
    <ele>1119.17</ele>
   </trkpt>
   <trkpt lat="45.915000000000006" lon="6.87185">
    <ele>1119.17</ele>
   </trkpt>
   <trkpt lat="45.91521" lon="6.87197">
    <ele>1111.55</ele>
   </trkpt>
   <trkpt lat="45.91554000000001" lon="6.872050000000001">
    <ele>1100.2500000000002</ele>
   </trkpt>
   <trkpt lat="45.91563000000001" lon="6.8721000000000005">
    <ele>1097.5700000000002</ele>
   </trkpt>
   <trkpt lat="45.915710000000004" lon="6.87218">
    <ele>1094.0</ele>
   </trkpt>
   <trkpt lat="45.91583000000001" lon="6.87239">
    <ele>1088.7300000000002</ele>
   </trkpt>
   <trkpt lat="45.91588" lon="6.872450000000001">
    <ele>1088.7300000000002</ele>
   </trkpt>
   <trkpt lat="45.916090000000004" lon="6.872560000000001">
    <ele>1081.21</ele>
   </trkpt>
   <trkpt lat="45.916340000000005" lon="6.87288">
    <ele>1073.67</ele>
   </trkpt>
   <trkpt lat="45.91658" lon="6.872890000000001">
    <ele>1060.6</ele>
   </trkpt>
   <trkpt lat="45.916720000000005" lon="6.872730000000001">
    <ele>1060.6</ele>
   </trkpt>
   <trkpt lat="45.91673" lon="6.872660000000001">
    <ele>1053.45</ele>
   </trkpt>
   <trkpt lat="45.91668000000001" lon="6.872440000000001">
    <ele>1049.3000000000002</ele>
   </trkpt>
   <trkpt lat="45.91668000000001" lon="6.8724300000000005">
    <ele>1049.5</ele>
   </trkpt>
   <trkpt lat="45.91669" lon="6.872310000000001">
    <ele>1046.5900000000001</ele>
   </trkpt>
   <trkpt lat="45.91673" lon="6.872230000000001">
    <ele>1043.71</ele>
   </trkpt>
   <trkpt lat="45.916850000000004" lon="6.87215">
    <ele>1040.7600000000002</ele>
   </trkpt>
   <trkpt lat="45.916900000000005" lon="6.872050000000001">
    <ele>1039.43</ele>
   </trkpt>
   <trkpt lat="45.9172" lon="6.871670000000001">
    <ele>1038.25</ele>
   </trkpt>
   <trkpt lat="45.91752" lon="6.87143">
    <ele>1036.5600000000002</ele>
   </trkpt>
   <trkpt lat="45.917790000000004" lon="6.871200000000001">
    <ele>1036.0900000000001</ele>
   </trkpt>
   <trkpt lat="45.91794" lon="6.871040000000001">
    <ele>1035.92</ele>
   </trkpt>
   <trkpt lat="45.91848" lon="6.8702700000000005">
    <ele>1035.46</ele>
   </trkpt>
   <trkpt lat="45.91864" lon="6.87002">
    <ele>1035.3000000000002</ele>
   </trkpt>
   <trkpt lat="45.918780000000005" lon="6.869800000000001">
    <ele>1035.14</ele>
   </trkpt>
   <trkpt lat="45.918850000000006" lon="6.86974">
    <ele>1034.92</ele>
   </trkpt>
   <trkpt lat="45.91934333827784" lon="6.868990013278495">
    <ele>1035.01</ele>
   </trkpt>
   <trkpt lat="45.91983667164956" lon="6.868240013220335">
    <ele>1035.35</ele>
   </trkpt>
   <trkpt lat="45.92033000000001" lon="6.867490000000001">
    <ele>1037.8100000000002</ele>
   </trkpt>
   <trkpt lat="45.92049" lon="6.867210000000001">
    <ele>1038.8200000000002</ele>
   </trkpt>
   <trkpt lat="45.92063" lon="6.86692">
    <ele>1040.49</ele>
   </trkpt>
   <trkpt lat="45.92131500183349" lon="6.867559992142453">
    <ele>1040.6200000000001</ele>
   </trkpt>
   <trkpt lat="45.922000000000004" lon="6.868200000000001">
    <ele>1040.19</ele>
   </trkpt>
   <trkpt lat="45.922180000000004" lon="6.8684">
    <ele>1039.8899999999999</ele>
   </trkpt>
   <trkpt lat="45.92255000104522" lon="6.868864997027361">
    <ele>1039.8</ele>
   </trkpt>
   <trkpt lat="45.922920000000005" lon="6.869330000000001">
    <ele>1039.7</ele>
   </trkpt>
   <trkpt lat="45.92296" lon="6.86943">
    <ele>1039.65</ele>
   </trkpt>
   <trkpt lat="45.92309" lon="6.86957">
    <ele>1039.64</ele>
   </trkpt>
   <trkpt lat="45.92309" lon="6.869560000000001">
    <ele>1039.64</ele>
   </trkpt>
   <trkpt lat="45.9232" lon="6.869680000000001">
    <ele>1039.68</ele>
   </trkpt>
   <trkpt lat="45.923280000000005" lon="6.86971">
    <ele>1039.68</ele>
   </trkpt>
   <trkpt lat="45.92344000000001" lon="6.869650000000001">
    <ele>1040.07</ele>
   </trkpt>
   <trkpt lat="45.923570000000005" lon="6.8692">
    <ele>1040.93</ele>
   </trkpt>
  </trkseg>
 </trk>
</gpx>
